address,tel,city,category,site,discount_desc
"Θηβών 510, ΤΚ 13123, Αθήνα",2105053003,Αθήνα,"Αλλο, Αλλο, Ξενοδοχεια, ΤΟΥΡΙΣΜΟΣ, ΥΠΗΡΕΣΙΕΣ",www.ekdromi.gr,"20,00 ευρώ για οποιαδήποτε αγορά στο ekdromi.gr από τον Μάιο μέχρι τον Σεπτέμβριο και 10,00 ευρώ για αγορά στο ekdromi.gr από τον Οκτώβριο έως τον Απρίλιο.

Η έκπτωση των 10 ευρώ ή των 20 ευρώ δε δύναται να ζητηθεί σε χρηματική απόδοση, δηλαδή εάν κάποιος αγοράσει ένα πακέτο των 200 ευρώ και πληρώσει 180 ευρώ λόγω της εκπτώσεως και μετά ζητήσει ακύρωση και επιστροφή χρημάτων, ο συνεργάτης θα του αποδώσει τα χρήματα που πλήρωσε ο δικαιούχος ήτοι 180 ευρώ.
Η προσφορά αυτή δεν μπορεί να συνδυαστεί με οποιαδήποτε άλλη προωθητική ενέργεια του Ekdromi.gr και ιδιαιτέρως με τις ενέργειες που κατά καιρούς έχει ο συνεργάτης με τις 4 συστημικές τράπεζες και τα loyalty προγράμματά τους, καθώς και την Cosmote."
"Αθανασίου Διάκου 16, ΤΚ 11742, Αθήνα",2169003321,Αθήνα,"Αλλο, ΠΟΛΙΤΙΣΜΟΣ & ΨΥΧΑΓΩΓΙΑ",reservations@athensbybike.gr,ΑΤΗΕΝS MORNING BIKE TOUR - ΔΩΡΕΑΝ.
"Λεωφ. Μαραθώνος 156 , ΤΚ19005, Νέα Μάκρη",6970366819,Νέα Μάκρη,"Καμπινγκ/Κατασκηνωσεις, ΤΟΥΡΙΣΜΟΣ",www.campingneamakri.gr/EL,10% επί των αναγραφόμενων τιμών κατά τους μήνες Ιούλιο και Αύγουστο και 15% έκπτωση επί των αναγραφόμενων τιμών κατά τους υπολοίπους μήνες (Σεπτέμβριο - Ιούνιο).
"Φηροστεφάνι Θήρας , ΤΚ 84700, Σαντορίνη",2286022519,Σαντορίνη,"Ξενοδοχεια, ΤΟΥΡΙΣΜΟΣ",www.villailias.gr,10%.
"Χώρα, 85900, Αστυπάλαια",2243061935,Αστυπάλαια,"Ξενοδοχεια, ΤΟΥΡΙΣΜΟΣ",www.kallichoron.gr/el,"15% στις υπηρεσίες διαμονής του ξενοδοχείου επί του επίσημου τιμοκαταλόγου. Την περίοδο Ιουλίου - Αυγούστου, η έκπτωση είναι 10%."
"Ψακούδια - Σιθωνία, ΤΚ 63071, Χαλκιδική",2371051960,Χαλκιδική,"Ξενοδοχεια, ΤΟΥΡΙΣΜΟΣ",www.philoxenianet.gr,"10% στις υπηρεσίες διαμονής σε οποιαδήποτε περίοδο κατά τη διάρκεια Λειτουργίας του Ξενοδοχείου (εποχική), βάσει της διαθεσιμότητας επί των αναγραφόμενων τιμών που αναρτώνται στην ιστοσελίδα του ξενοδοχείου www.philoxenianet.gr. Επιπλέον, έκπτωση 20% στο ΜΠΑΡ του ξενοδοχείου με την επίδειξη της Κάρτας Νέων στις καταναλώσεις μη αλκοολούχων ποτών."
"3,3 Χλμ Ε.Ο Θεσ/νικης - Κατερίνης, ΤΚ/57009 Καλοχώρι, Χαλκιδική",2310501457,"Σιθωνία,Χαλκιδική","Καμπινγκ/Κατασκηνωσεις, ΤΟΥΡΙΣΜΟΣ",www.thalattacamp.gr,10% για όποιον έχει δικό του κατασκηνωτικό μέσο.
"Στέφανου Δέλτα 15, ΤΚ 15452, Ψυχικό",2106798100,"Αθήνα,Ψυχικό","ΜΟΡΦΩΣΗ & ΕΚΠΑΙΔΕΥΣΗ, Σεμιναρια Επαγγελματικης Καταρτισης & Επιμορφωσης",www.haef.gr,20% σε προγράμματα άτυπης μάθησης Ενηλίκων.
"Μαρίνα Τερψιθέας,  26441 Πάτρα",2610423939,Πάτρα,"ΑΘΛΗΤΙΣΜΟΣ, Αλλο, Μαθηματα Εκμαθησης Σπορ/Ενοικιασεις",www.sailingclub.gr,10% στο κόστος συμμετοχής στη Σχολή Ιστιοπλοϊκής Ανοικτής Θάλασσας του Ομίλου.
"Πλάτωνος 1, ΤΚ 15234, Χολαργός",2106826282,"Χαλάνδρι,Χολαργός",Υπηρεσιες Υγειας,www.mikrobiologiko.eu,Τιμολόγιο δημοσίου για όλες τις εξετάσεις με ελάχιστη χρέωση 5 ευρώ στις υπόλοιπες εξετάσεις χωρίς τιμή ΦΕΚ έκπτωση 20%.
"Κυπαρισσία, Μεσσηνία",2761024411,Κυπαρισσία,"Ξενοδοχεια, ΤΟΥΡΙΣΜΟΣ",www.apollo-hotel.gr,15%
Λαγκαδά 16 Θεσσαλονίκη,Εκδοτήρια Θεσσαλονίκη,Θεσσαλονίκη,"Λεωφορεια/Τρενα/Αεροπλανα/Πλοια, ΤΑΞΙΔΙΑ & ΜΕΤΑΦΟΡΕΣ",www.ktelthes.gr/el,25% επί της τιμής εισιτηρίου στην υπεραστική λεωφορειακή γραμμή Θεσσαλονίκη - Αθήνα και Πειραιάς και αντίστροφα.
"Αγγελικής Μεταλλινού 28, TK 54249, Θεσσαλονίκη",6982528555,Θεσσαλονίκη,"Αλλο, Αλλο, ΜΟΡΦΩΣΗ & ΕΚΠΑΙΔΕΥΣΗ, ΥΠΗΡΕΣΙΕΣ",www.mindmeup.com.gr,"50% για σύνταξη Βιογραφικού σημειώματος  (Αρχικό Κόστος 40ε),

50% σε Συμβουλευτικές Υπηρεσίες και Συνεντεύξεις - Εύρεση Εργασίας (Αρχικό Κόστος 50ε / Ώρα)."
"Αιόλου 94, Αθήνα 105 59",21 0360 3378,Αθήνα,"Αλλο, ΥΠΗΡΕΣΙΕΣ",https,"20% ΣΤΗ ΣΥΝΤΑΞΗ ΕΠΙΧΕΙΡΗΜΑΤΙΚΩΝ ΣΧΕΔΙΩΝ ΧΡΗΜΑΤΟΔΟΤΗΣΗΣ ΑΠΟ ΤΟ ΕΣΠΑ, ΣΤΗΝ ΜΕΛΕΤΗ ΠΙΣΤΟΠΟΙΗΣΗΣ ISO, ΣΕ WEB & GRAPHIC DESIGN (ΙΣΤΟΣΕΛΙΔΕΣ, E-SHOP, BLOGS, ΛΟΓΟΤΥΠΑ, ΕΝΤΥΠΑ, ΕΠΑΓΓΕΛΜΑΤΙΚΟΣ ΚΑΤΑΛΟΓΟΣ) ΕΠΙ ΤΩΝ ΑΝΑΓΡΑΦΟΜΕΝΩΝ ΤΙΜΩΝ ΤΩΝ ΥΠΗΡΕΣΙΩΝ / ΠΡΟΙΟΝΤΩΝ ΑΥΤΩΝ."
"Μοσχονησίων 2Α & Αγίου Μελετίου 72, ΤΚ 11252, Αθήνα",2102723413,"Αθήνα,Θεσσαλονίκη,Κρήτη,Μαρούσι,Νέα Ερυθραία,Νέα Ιωνία,Πεντέλη,Τρίπολη,Χίος","Κομμωτηρια, ΥΓΕΙΑ & ΟΜΟΡΦΙΑ",www.modshair.gr,"20% σε υπηρεσίες κομμωτηρίου.



KΟΜΜΩΤΗΡΙΟ


1
ΑΘΗΝΑ"
"Χαλκοκονδύλη 5, 10677, Αθήνα",2103301110,Αθήνα,"ΜΟΡΦΩΣΗ & ΕΚΠΑΙΔΕΥΣΗ, Σχολες Ξενων Γλωσσων",www.eurodiastasi.gr/frontstiria-xenon-glosson-eurodiastasi-a-01-0910-18,"35% επί των τιμών του επίσημου τιμοκαταλόγου σε όλα τα προγράμματα. Εφόσον βρίσκεται σε ισχύ ευνοϊκότερή γενική προσφορά (άνω του 35%), οι κάτοχοι της Ευρωπαϊκής Κάρτας Νέων θα έχουν έκπτωση 5% επιπλέον της γενικά ισχύουσας προσφοράς."
Βασ. Γεωργίου 50Α  15233 Χαλάνδρι,213 0213 120,Χαλάνδρι,"Ενοικιασεις Αυτοκινητων,Ποδηλατων,Μοτοσυκλετων, Σκαφών, ΤΑΞΙΔΙΑ & ΜΕΤΑΦΟΡΕΣ",www.budget.gr,"15% στις υπηρεσίες.



Όροι Προσφοράς"
"Βασ. Γεωργίου 47, Χαλάνδρι 152 33",21 0687 9800,Χαλάνδρι,"Ενοικιασεις Αυτοκινητων,Ποδηλατων,Μοτοσυκλετων, Σκαφών, ΤΑΞΙΔΙΑ & ΜΕΤΑΦΟΡΕΣ",www.avis.gr,"25% στις υπηρεσίες.
Όροι"
"ΑΧΑΪΑΣ 46, ΤΚ 11524, ΑΘΗΝΑ",2106925477,,"Αλλο, Καφετεριες",www.facebook.com/luckymanbilliards/,"10% ΤΙΜΕΣ ΤΙΜΟΚΑΤΑΛΟΓΟΥ, 15% ΣΕ ΠΙΝΓΚ ΠΟΝΓΚ & ΜΠΙΛΙΑΡΔΟ."
"ΑΝΩΠΟΛΗ ΠΕΔΙΑΔΟΣ, 70008, ΗΡΑΚΛΕΙΟ ΚΡΗΤΗΣ",2815000200,Ηράκλειο,"Αλλο, Αλλο, Αλλο, ΠΟΛΙΤΙΣΜΟΣ & ΨΥΧΑΓΩΓΙΑ, ΤΟΥΡΙΣΜΟΣ",WWW.WATERCITY.GR,"50% ΣΤΟ ΕΙΣΙΤΗΡΙΟ ΕΙΣΟΔΟΥ

 

ΣΥΓΚΕΚΡΙΜΕΝΑ ΤΟ ΕΙΣΙΤΗΡΙΟ ΔΙΑΜΟΡΦΩΝΕΤΑΙ ΣΕ"
"ΑΡΕΩΣ 14, ΤΚ 60100, ΟΛΥΜΠΙΑΚΗ ΑΚΤΗ ΚΑΤΕΡΙΝΗΣ, ΠΙΕΡΙΑ",697 900 6181,Κατερίνη,"Ξενοδοχεια, ΤΟΥΡΙΣΜΟΣ",www.ouzashotel.gr,15% ΕΠΙ ΤΗΣ ΣΥΝΟΛΙΚΗΣ ΤΙΜΗΣ.
"ΣΤΡ. ΚΑΡΑΙΣΚΑΚΗ 1-Β, TK 12461, ΧΑΙΔΑΡΙ",2105326009,"Αθήνα,Χαΐδάρι","Γρηγορα Γευματα, Εστιατορια, ΦΑΓΗΤΟ & ΠΟΤΟ",WWW.AGELOS.GR,10% ΣΤΟΝ ΤΕΛΙΚΟ ΛΟΓΑΡΙΑΣΜΟ.
"ΗΛΙΔΟΣ 6, ΤΚ 13562, ΑΘΗΝΑ",2102319934,"Άγιοι Ανάργυροι,Αθήνα","Αλλο, ΥΠΗΡΕΣΙΕΣ",www.logistikoxirouhaki.gr/COMPANY/,20% ΕΚΠΤΩΣΗ ΣΕ ΟΛΕΣ ΤΙΣ ΥΠΗΡΕΣΙΕΣ.
"1Ο ΧΙΛΙΟΜΕΤΡΟ ΘΕΣΣΑΛΟΝΙΚΗΣ - ΩΡΑΙΟΚΑΣΤΡΟΥ, ΕΥΚΑΡΠΙΑ",2310685066,"Θεσσαλονίκη,Ωραιόκαστρο","ΚΑΤΑΣΤΗΜΑΤΑ, Μοδα",WWW.DIO-LAB.GR,"-10% ΕΚΠΤΩΣΗ ΣΕ ΟΛΗ ΤΗΝ ΑΣΗΜΕΝΙΑ ΣΥΛΛΟΓΗ ΚΟΣΜΗΜΑΤΩΝ.

-40% ΣΕ ΟΛΑ ΤΑ ΚΟΛΙΕ ΜΕ ΟΝΟΜΑ ΚΑΙ ΤΑ ΚΟΛΙΕ ΜΕ ΖΩΔΙΟ."
Έδρα,2531028316 (Κεντρικό Κατάστημα) και 2531072244 (Υποκατάστημα),Κομοτηνή,"Αλλο, ΚΑΤΑΣΤΗΜΑΤΑ",www.mixailidisgroup.gr,"20% σε όλα τα είδη, επί των αναγραφόμενων τιμών των προϊόντων αυτών."
"Λυσικράτους 1-7 & Ευριπίδου, 17674 Καλλιθέα",210 8919700,"Αθήνα,Καλλιθέα","Λεωφορεια/Τρενα/Αεροπλανα/Πλοια, ΤΑΞΙΔΙΑ & ΜΕΤΑΦΟΡΕΣ",www.superfast.com,"20% σε όλες τις υπηρεσίες   μεταφοράς για τις δρομολογιακές γραμμές Πάτρα-Ηγουμενίτσα-Κέρκυρα-Ανκόνα, Ανκόνα-Κέρκυρα-Ηγουμενίτσα-Πάτρα, Πάτρα-Ηγουμενίτσα-Κέρκυρα-Μπάρι, Μπάρι-Κέρκυρα-Ηγουμενίτσα-Πάτρα καθώς και Βενετία-Κέρκυρα-Ηγουμενίτσα-Πάτρα, Πάτρα-Ηγουμενίτσα-Κέρκυρα-Βενετία.

Η έκπτωση αφορά τα εισιτήρια επιβατών για τις ως άνω δρομολογιακές γραμμές ανεξαρτήτως θέσης και αναλόγως διαθεσιμότητας.

Η έκπτωση δεν ισχύει αθροιστικά με τις εκπτώσεις / προσφορές του καταλόγου της εταιρίας."
"Δ. ΓΟΥΝΑΡΗ 27, ΤΚ 16562, ΓΛΥΦΑΔΑ",2109607733,Γλυφάδα,"ΜΟΡΦΩΣΗ & ΕΚΠΑΙΔΕΥΣΗ, Σεμιναρια Επαγγελματικης Καταρτισης & Επιμορφωσης",www.infoquality.gr,20% ΣΕ ΟΜΑΔΙΚΕΣ ΕΚΠΑΙΔΕΥΣΕΙΣ (GROUP).
"ΛΟΦΟΣ ΠΑΝΕΠΙΣΤΗΜΙΟΥ, 83200, ΜΥΤΙΛΗΝΗ, ΛΕΣΒΟΣ",2273082255,Λέσβος,"ΜΟΡΦΩΣΗ & ΕΚΠΑΙΔΕΥΣΗ, Σεμιναρια Επαγγελματικης Καταρτισης & Επιμορφωσης",www.elearn-aegean.gr,15% στα προγράμματα
"ΒΑΣΙΛΙΣΣΗΣ ΣΟΦΙΑΣ 98Α, ΤΚ 11528, ΑΘΗΝΑ",2110127842,Αθήνα,"ΜΟΡΦΩΣΗ & ΕΚΠΑΙΔΕΥΣΗ, Σχολες Ξενων Γλωσσων",www.diagerontoudi.gr,10% ΠΡΟΕΤΟΙΜΑΣΙΑ ΜΕΤΑΠΤΥΧΙΑΚΩΝ  ΜΑΘΗΜΑΤΑ GMAT-GRE-TOEFT-IELTS
"ΠΑΥΛΟΥ ΜΕΛΑ 5, ΤΚ 59300, ΑΛΕΞΑΝΔΡΕΙΑ, ΗΜΑΘΙΑ",2333026770,Ημαθία,"ΜΟΡΦΩΣΗ & ΕΚΠΑΙΔΕΥΣΗ, Σεμιναρια Επαγγελματικης Καταρτισης & Επιμορφωσης",www.ramcomputer.gr,20% ΣΕ ΣΕΜΙΝΑΡΙΑ ΕΠΑΓΓΕΛΜΑΤΙΚΗΣ ΚΑΤΑΡΤΙΣΗΣ
"ΠΕΡ. ΟΔΟΣ ΑΡΤΑΣ ΑΡΑΧΘΟΥ, ΤΚ 47100, ΑΡΤΑ",2681400037,Άρτα,"ΜΟΡΦΩΣΗ & ΕΚΠΑΙΔΕΥΣΗ, Σεμιναρια Επαγγελματικης Καταρτισης & Επιμορφωσης, Σχολες Ξενων Γλωσσων",www.futurevoice.edu.gr,10% ΣΕΜΙΝΑΡΙΑ ΕΠΑΓΓΕΛΜΑΤΙΚΗΣ ΚΑΤΑΡΤΙΣΗΣ & ΕΠΙΜΟΡΦΩΣΗΣ - ΣΧΟΛΕΣ ΞΕΝΩΝ ΓΛΩΣΣΩΝ
"ΖΑΡΟΣ ΗΡΑΚΛΕΙΟΥ, ΤΚ 70002, ΚΡΗΤΗ",2894500407,Ηράλειο Κρήτης,"Αλλο, ΥΠΗΡΕΣΙΕΣ",www.mmagroup.gr,20% ΕΠΙ ΤΩΝ ΤΙΜΟΛΟΓΗΜΕΝΩΝ ΥΠΗΡΕΣΙΩΝ.
"ΓΟΥΝΑΡΗ 96 & ΛΕΩΦ. ΚΗΦΙΣΙΑΣ, TK 15125, ΑΘΗΝΑ",2112213726,Αθήνα,"ΜΟΡΦΩΣΗ & ΕΚΠΑΙΔΕΥΣΗ, Σεμιναρια Επαγγελματικης Καταρτισης & Επιμορφωσης",www.bqc.gr,20% Στα Σεμινάρια Επαγγελματικής Κατάρτισης και Επιμόρφωσης.
"ΟΘΩΝΟΣ 2, ΤΚ 15122, ΜΑΡΟΥΣΙ",2106120125,"Αθήνα,Μαρούσι","Αλλο, ΜΟΡΦΩΣΗ & ΕΚΠΑΙΔΕΥΣΗ, Σχολες Ξενων Γλωσσων",www.ekpedefsitheoritiko.gr,"15% στις ξένες γλώσσες Αγγλικά, Γαλλικά, Γερμανικά, Ισπανικά, Ιταλικά, Ρώσσικα, Αραβικά, Κινέζικα, Αλβανικά, Ελληνικά για Ξένους μόνο για τα ομαδικά τμήματα (3+άτομα) και σύμφωνα με τους συμφωνημένους κανονισμούς του Συνεργάτη.

15% σε Πανεπιστημιακό Μαθήματα προετοιμασίας για Κατατακτήριες Εξετάσεις και Εξετάσεις Μεταπτυχιακών για τις Ανθρωπιστικές Σχολές - Τμήματα που προσφέρει το Φροντιστήριο, μόνο για τα ομαδικά τμήματα (3+άτομα) και σύμφωνα με τους συμφωνημένους κανονισμούς του Συνεργάτη.

15% για προετοιμασία για τις Εξετάσεις της Εθνικής Σχολής Δημόσιας Διοίκησης , μόνο για τα ομαδικά τμήματα (3+άτομα) και σύμφωνα με τους συμφωνημένους κανονισμούς του Συνεργάτη.

15% για σύνταξη Portfolio & reference letter για Πανεπιστήμια του Εξωτερικού.
Καλύπτουμε Αγγλικά, Γαλλικά, Γερμανικά, Ιταλικά, Ισπανικά, Ρώσσικα, Κινέζικα και Αραβικά.

15% στην προετοιμασία για τα αντίστοιχα πτυχία γλωσσομάθειας που απαιτούν στα Πανεπιστήμια κάθε χώρας του Εξωτερικού.

Όλες οι εκπτώσεις ισχύουν μόνο εάν ο σπουδαστής έχει εκπληρώσει τις οικονομικές του υποχρεώσεις σύμφωνα με τον διακανονισμό που ο ίδιος έχει κάνει και υπογράψει με το Εκπαιδευτήριο."
"Α. ΜΕΤΑΞΑ 33, TK 16674, ΑΘΗΝΑ",2108981633,"Αθήνα,Γλυφάδα","Αλλο, ΥΠΗΡΕΣΙΕΣ",www.taxsupport.gr,30% ΕΚΠΤΩΣΗ ΣΕ ΟΛΕΣ ΤΙΣ ΛΟΓΙΣΤΙΚΕΣ & ΦΟΡΟΤΕΧΝΙΚΕΣ ΥΠΗΡΕΣΙΕΣ
"Αγ. Δημητρίου 41, ΤΚ 18546, Πειραιάς",2111000170,"Αθήνα,Πειραιάς",Σεμιναρια Επαγγελματικης Καταρτισης & Επιμορφωσης,www.sot.gr,10 % σε μόρφωση και εκπαίδευση.
"5 Ο ΧΙΛ ΛΑΡΙΣΑΣ ΑΘΗΝΩΝ, ΤΚ 41110, ΑΘΗΝΑ",2410688688,"Αθήνα,Θεσσαλονίκη,Λάρισα","Αλλο, ΚΑΤΑΣΤΗΜΑΤΑ",www.biokarpet.gr,"Έκπτωση 10% στα υποκαταστήματα της εταιρίας στην Αθήνα και Θεσσαλονίκη, καθώς και για αυτό της Λάρισας.
Αναλυτικά"
"Λ. ΠΕΝΤΕΛΗΣ 73, ΤΚ 15234, ΧΑΛΑΝΔΡΙ",2106856400,,"Εστιατορια, ΦΑΓΗΤΟ & ΠΟΤΟ",www.pizzafan.gr,"H Pizza Fan Greece προσφέρει στους κατόχους της Ευρωπαϊκής Κάρτας Νέων
1 πίτσα 10 τεμαχίων και 2 αναψυκτικά 330ml στο αντίτιμο των 8 €
1 ατομική πίτσα και 1 ατομικό choco krats στο αντίτιμο των 4,5€


Κάντε την παραγγελία σας ηλεκτρονικά εδώ"
"ΤΣΙΜΙΣΚΗ 31, ΤΚ 67100, ΞΑΝΘΗ",2541109187,Ξάνθη,Σχολες Ξενων Γλωσσων,www.perfekt-deutsch.gr,10%.
"ΜΕΣΟΓΕΙΩΝ 99, ΤΚ 11526, ΑΘΗΝΑ",2114059540,Αθήνα,"Μαθηματα Εκμαθησης Σπορ/Ενοικιασεις, Σεμιναρια Επαγγελματικης Καταρτισης & Επιμορφωσης",www.insa.gr,20% ΕΠΑΓΓΕΛΜΑΤΙΕΣ ΑΝΑΛΥΤEΣ ΑΓΩΝΩΝ
"Αγίου Κωνσταντίνου 5, Πειραιάς 185 31",21 0412 8368,Πειραιάς,"ΜΟΡΦΩΣΗ & ΕΚΠΑΙΔΕΥΣΗ, Σχολες Ξενων Γλωσσων",www.grapsa.edu.gr,20% στα προγράμματα ενηλίκων.
"ΚΟΥΝΤΟΥΡΓΙΩΤΟΥ 108, TK 18532, ΠΕΙΡΑΙΑΣ",2104137919,"Αγία Παρασκευή,Άγιος Δημήτριος,Αθήνα,Άλιμος,Αμφιάλη,Αργυρούπολη,Αχαρνές,Βριλήσσια,Βύρωνας,Γαλάτσι,Γέρακας,Γλυκά Νερά,Γλυφάδα,Δάφνη,Ελληνικό,Ζωγράφου,Ηλιούπολη,Ιωάννινα,Καλλιθέα,Κορυδαλλός,Μαρούσι,Μελίσσια,Νέα Ερυθραία,Νέα Ιωνία,Νέα Σμύρνη,Νέο Ηράκλειο,Νέος Κόσμος,Παγκράτι,Παλαιό Φάληρο,Παλλήνη,Πανόρμου,Πειραιάς,Πετρούπολη,Σπάρτη,Σπάτα,Σύρος,Χαλάνδρι,Χολαργός","ΜΟΡΦΩΣΗ & ΕΚΠΑΙΔΕΥΣΗ, Σχολες Ξενων Γλωσσων",www.soeasy.gr,20% Έκπτωση στα φροντιστήρια So Easy σε όλη την Ελλάδα!
"Φωλιά 640 07, Καβάλα",2594092547,Καβάλα,"Αθλητικα/Αθλητικος Εξοπλισμος, Αλλο, Βιβλιοπωλεια/CD&DVD/Χαρτικα, Ειδη Καλλυντικων, ΗΥ/Φωτογραφικες Μηχανες/Gadgets, ΚΑΤΑΣΤΗΜΑΤΑ, Υπηρεσιες Ενοικιασεων/Επισκευων, Υπηρεσιες Ψηφιακης Εκτυπωσης",www.facebook.com/Cosmos-Stores-2189019361413377,10% σε όλα τα είδη στις τιμές καταστήματος.
"ΠΑΝΤΑΝΑΣΣΗΣ 4-6, ΤΚ 26221, ΠΑΤΡΑ",2610450701,Πάτρα,"ΜΟΡΦΩΣΗ & ΕΚΠΑΙΔΕΥΣΗ, Σεμιναρια Επαγγελματικης Καταρτισης & Επιμορφωσης",www.iekeuroteam.gr,10%  ΕΚΠΤΩΣΗ ΣΕ ΚΑΘΕ ΕΙΔΙΚΟΤΗΤΑ ΤΟΥ ΙΙΕΚ
"ΛΕΩΦΟΡΟΣ ΜΕΣΟΓΕΙΩΝ 419, ΤΚ 15343, ΑΘΗΝΑ",2105220920,"Αθήνα,Χολαργός","ΜΟΡΦΩΣΗ & ΕΚΠΑΙΔΕΥΣΗ, Σεμιναρια Επαγγελματικης Καταρτισης & Επιμορφωσης",www.tuvaustria.academy,15% ΣΕ ΟΛΑ ΤΑ ΕΚΠΑΙΔΕΥΤΙΚΑ ΤΗΣ ΠΡΟΓΡΑΜΜΑΤΑ.
"ΑΤΤΙΚΗ ΟΔΟΣ & ΠΟΣΕΙΔΩΝΟΣ, ΤΚ 14451, ΑΘΗΝΑ",2102836400,Αθήνα,"ΚΑΤΑΣΤΗΜΑΤΑ, Μοδα",www.matfashion.com,"20% επί των αρχικών τιμών. Η έκπτωση αυτή δε συνδυάζεται με άλλη προωθητική ενέργεια και δεν ισχύει σε περιόδους εκπτώσεων και σε προϊόντα που είναι σε προσφορά.

Η έκπτωση ισχύει σε όλα τα mat stores στην Ελλάδα με εξαίρεση το mat outlet στη Νίκαια, ενώ δεν ισχύει στα Mat Shop & Corners εκτός Ελλάδας."
"Αγγ. Γέροντα 6, ΤΚ 10558, Αθήνα",2103256921,"Αθήνα,Βόλος,Δημητσάνα,Ιωάννινα,Λέσβος,Σουφλί,Σπάρτη,Τήνος,Χίος","Μουσεια/Γκαλερι/Αξιοθεατα, ΠΟΛΙΤΙΣΜΟΣ & ΨΥΧΑΓΩΓΙΑ",www.piop.gr,"100% έκπτωση στο εισιτήριο εισόδου (ελεύθερη είσοδο) και στα εννέα (9) Μουσεία του Δικτύου του Πολιτιστικού Ιδρύματος Ομίλου Πειραιώς.

Συγκεκριμένα"
"ΧΙΟΥ & ΣΑΝΤΟΡΙΝΗΣ 4, ΤΚ 26334, ΠΑΤΡΑ",2610226652,Πάτρα,Σεμιναρια Επαγγελματικης Καταρτισης & Επιμορφωσης,www.practica.gr,10% ΣΤΑ ΑΥΤΟΧΡΗΜΑΤΟΔΟΤΟΥΜΕΝΑ ΠΡΟΓΡΑΜΜΑΤΑ ΚΑΤΑΡΤΙΣΗΣ.
"ΓΚΕΡΤΣΟΥ & 11ΗΣ ΟΚΤΩΜΒΡΙΟΥ ΑΡ. 24, ΤΚ 50100, ΚΟΖΑΝΗ",2461027001,Κοζάνη,Σεμιναρια Επαγγελματικης Καταρτισης & Επιμορφωσης,www.elkedim.gr,20%.
"ΙΠΠΟΚΡΑΤΟΥΣ 16, ΤΚ 27200, ΑΜΑΛΙΑΔΑ",2622023601,Αμαλιάδα,Σεμιναρια Επαγγελματικης Καταρτισης & Επιμορφωσης,www.ergasiakek.gr,10% στη πιστοποίηση γνώσης υπολογιστών.
"ΜΑΙΖΩΝΟΣ 121, ΠΑΤΡΑ",2610622633,Πάτρα,"ΜΟΡΦΩΣΗ & ΕΚΠΑΙΔΕΥΣΗ, Σεμιναρια Επαγγελματικης Καταρτισης & Επιμορφωσης",www.carierrapatras.gr,10%.
"Λ. ΣΥΓΓΡΟΥ 40-42, ΤΚ 11743, ΑΘΗΝΑ",2162005953,Αθήνα,"Ενοικιασεις Αυτοκινητων,Ποδηλατων,Μοτοσυκλετων, Σκαφών, ΤΑΞΙΔΙΑ & ΜΕΤΑΦΟΡΕΣ",www.avance.gr,15% ΕΠΙ ΤΟΥ ΗΜΕΡΗΣΙΟΥ ΜΙΣΘΩΜΑΤΟΣ ΤΟΥ ΕΚΑΣΤΟΤΕ ΙΣΧΥΟΝΤΟΣ ΤΙΜΟΚΑΤΑΛΟΓΟΥ ΤΟΥ ΣΥΝΕΡΓΑΤΗ.
"ΕΛ. ΒΕΝΙΖΕΛΟΥ 27, ΤΚ 65302, ΚΑΒΑΛΑ",2510224812,Καβάλα,"Ξενοδοχεια, ΤΟΥΡΙΣΜΟΣ",www.airotel.gr/el/Galaxy-Hotel-790.htm,20%.
"ΚΑΛΑΜΠΑΚΑ, ΤΚ 42200",2432075219,Καλαμπάκα,"Μουσεια/Γκαλερι/Αξιοθεατα, ΠΟΛΙΤΙΣΜΟΣ & ΨΥΧΑΓΩΓΙΑ",www.bookmuseum.gr,25%.
"ΠΛΑΤΕΙΑ ΕΙΡΗΝΗΣ 28, ΤΚ 69132, ΚΟΜΟΤΗΝΗ",2531035054,Κομοτηνή,"Ξενοδοχεια, ΤΟΥΡΙΣΜΟΣ",www.astoriakomotini.gr,15% ΕΠΙ ΤΩΝ ΕΚΑΣΤΟΤΕ ΤΙΜΩΝ ΤΗΣ ΠΕΡΙΟΔΟΥ.
"ΑΡΔΗΤΤΟΥ 36, ΤΚ 11636, ΜΕΤΣ, ΑΘΗΝΑ",2111192220,"Αθήνα,Μετς","ΜΟΡΦΩΣΗ & ΕΚΠΑΙΔΕΥΣΗ, Σεμιναρια Επαγγελματικης Καταρτισης & Επιμορφωσης",www.coachingnow.gr,20% ΣΤΙΣ ΥΠΗΡΕΣΙΕΣ COACHING & ΣΥΝΤΑΞΗΣ ΒΙΟΓΡΑΦΙΚΟΥ & ΠΡΟΕΤΟΙΜΑΣΙΑ ΣΥΝΕΝΤΕΥΞΗΣ.
"ΚΑΛΥΦΤΑΚΗ 5, ΤΚ 14564, ΚΗΦΙΣΙΑ",2111887120,"Αθήνα,Κηφισιά","ΚΑΤΑΣΤΗΜΑΤΑ, Μοδα",www.notos.gr/AMERICANEAGLE,"10% OFF ΣΤΙΣ ΙΣΧΥΟΥΣΕΣ ΤΙΜΕΣ ΤΩΝ ΚΑΤΑΣΤΗΜΑΤΩΝ. ΤΟ ΠΟΣΟΣΤΟ ΕΚΠΤΩΣΗΣ ΑΦΟΡΑ ΤΑ ΦΥΣΙΚΑ ΚΑΤΑΣΤΗΜΑΤΑ ΜΟΝΟ. ΣΥΝΔΥΑΖΕΤΑΙ ΜΕ ΑΛΛΕΣ ΠΡΟΩΘΗΤΙΚΕΣ. ΔΕΝ ΣΥΝΔΥΑΖΕΤΑΙ ΜΕ ΕΚΠΤΩΣΕΙΣ.

* εξαιρούνται τα Aerie undies και τα clearance."
"ΟΔΟΣ ΑΓΧΙΑΛΟΥ 53, ΤΚ 69100, ΚΟΜΟΤΗΝΗ",2531036242,Κομοτηνή,"Bars/Pubs, Εστιατορια, Καφετεριες, Ξενοδοχεια",www.anatoliahospitality.com/KOMOTINI,"10% ΞΕΝΟΔΟΧΕΙΟ, ΜΠΑΡ, ΚΑΦΕΤΕΡΙΑ, ΕΣΤΙΑΤΟΡΙΟ."
"7ΗΣ ΜΕΡΑΡΧΙΑΣ 139, TK 65403, ΚΑΒΑΛΑΣ",2510600250,Καβάλα,"Γυμναστηρια/Fitness, Κομμωτηρια, Ξενοδοχεια",www.egnatiahotel.gr,"13% ΑΠΟ ΤΟΝ ΕΠΙΣΗΜΟ ΤΙΜΟΚΑΤΑΛΟΓΟ ΞΕΝΟΔΟΧΕΙΟ, ΓΥΜΝΑΣΤΗΡΙΟ 10%, SPA 10%."
"ΟΔΟΣ ΝΕΑΠΟΛΗΣ, 81100, ΜΥΤΙΛΗΝΗ",2251061531,"Λέσβος,Μυτιλήνη",Ξενοδοχεια,www.elysion.gr/el,15% ΑΠΟ ΤΙΣ ΤΙΜΕΣ ΠΟΡΤΑΣ.
"ΕΡΜΟΥ 5, ΤΚ 66132, ΔΡΑΜΑ",2521027622,Δράμα,Σχολες Ξενων Γλωσσων,www.tsiridou.gr,25% ΣΕ ΔΙΑΔΙΚΤΥΑΚΑ ΜΑΘΗΜΑΤΑ ΑΓΓΛΙΚΗΣ ΓΛΩΣΣΑΣ.
"Γ.ΒΟΡΑΖΑΝΗ 3, ΤΚ 66100, ΔΡΑΜΑ",2521031520,Δράμα,Ξενοδοχεια,www.marianna-hotel.gr,"15% ΑΝΑ ΔΩΜΑΤΙΟ, ΒΑΣΗ ΤΩΝ ΕΚΑΣΤΟΤΕ ΤΙΜΩΝ ΠΟΥ ΕΧΕΙ ΤΟ ΞΕΝΟΔΟΧΕΙΟ ΣΤΗΝ ΙΣΤΟΣΕΛΙΔΑ ΤΟΥ BOOKING.COM."
"ΑΝΤΙΚΑ 7, ΤΚ 67100, ΞΑΝΘΗ",2541025421,Ξάνθη,Μουσεια/Γκαλερι/Αξιοθεατα,www.fex.org.gr,50%.
"ΜΗΤΡΟΠΟΛΕΩΣ 88, TK 10555",2103219237,Αθήνα,ΗΥ/Φωτογραφικες Μηχανες/Gadgets,www.detroitshop.blogspot.com,20% ΣΤΟ DETROIT ATHENS.
"ΟΔΟΣ ΖΕΜΕΝΟΥ, ΤΚ 32004, ΑΡΑΧΩΒΑ",2267031204,Αράχωβα,"Bars/Pubs, Εστιατορια, Καφετεριες, Ξενοδοχεια",www.hanizemenou.gr/el,"15% ΞΕΝΟΔΟΧΕΙΟ, 15% ΜΠΑΡ, 15% ΚΑΦΕΤΕΡΙΑ, 15% ΕΣΤΙΑΤΟΡΙΟ"
"ΑΚΤΗΣ ΜΙΑΟΥΛΗ 87, ΤΚ 18538, ΠΕΙΡΑΙΑΣ",2267031640,"Αθήνα,Πειραιάς",Ξενοδοχεια,www.domotel.gr/el/hotel-anemolia,15% ΓΙΑ ΤΗΝ ΠΕΡΙΟΔΟ 15/3 ΕΩΣ 25/10 ΕΞΑΙΡΟΥΜΕΝΩΝ ΤΩΝ ΕΟΡΤΑΣΤΙΚΏΝ ΠΕΡΙΟΔΩΝ ΚΑΙ ΕΠΙΣΗΜΩΝ ΑΡΓΙΩΝ & 10% ΤΗΝ 26/10 ΕΩΣ 14/3.
"ΦΙΛΕΛΛΗΝΩΝ 15, ΤΚ 65302, ΚΑΒΑΛΑ",2510620664,Καβάλα,"Αλλο, Σχολες Ξενων Γλωσσων",www.lingua.com.gr/home,30% ΣΤΗ ΣΧΟΛΗ ΞΕΝΩΝ ΓΛΩΣΩΝ ΚΑΙ 30% ΣΤΗ ΠΛΗΡΟΦΟΡΙΚΗ.
"Δ. ΔΗΜΑΔΗ 1, ΤΚ 64100, ΚΑΒΑΛΑ",2592023230,Καβάλα,Σεμιναρια Επαγγελματικης Καταρτισης & Επιμορφωσης,www.korifi.net,10% στα σεμινάρια κατάρτισης.
"Λεωφ. Κηφισίας 328, Κηφισιά",2106230310,"Κηφισιά,Νέα Ερυθραία","Οφθαλμιατροι/Οδοντιατροι/Αλλοι Γιατροι, ΥΓΕΙΑ & ΟΜΟΡΦΙΑ",www.biotypos.gr,"Το Ιατρικό Διαγνωστικό Κέντρο - Βιότυπος παρέχει σε όλους τους κατόχους της «Κάρτας Νέων», καθώς και στα μέλη των οικογενειών τους (α’ βαθμού συγγένειας) τα εξής προνόμια"
"Λ. Βεΐκου 43, Γαλάτσι",2102132500,Γαλάτσι,"Οφθαλμιατροι/Οδοντιατροι/Αλλοι Γιατροι, ΥΓΕΙΑ & ΟΜΟΡΦΙΑ",www.biotypos.gr,"Το Ιατρικό Διαγνωστικό Κέντρο - Βιότυπος παρέχει σε όλους τους κατόχους της «Κάρτας Νέων», καθώς και στα μέλη των οικογενειών τους (α’ βαθμού συγγένειας) τα εξής προνόμια"
"ΠΗΧΕΩΝ 1 ΠΛΑΤΕΙΑ ΝΤΟΛΤΣΟ, TK 52100, ΚΑΣΤΟΡΙΑ",2467021604,Καστοριά,Ξενοδοχεια,www.orologopoulos.gr,15% στη διαμονή.
ΕΙΡΗΝΗΣ 46 ΤΚ 15121 ΠΕΥΚΗ,2106148535,Πεύκη,"Οφθαλμιατροι/Οδοντιατροι/Αλλοι Γιατροι, ΥΓΕΙΑ & ΟΜΟΡΦΙΑ",www.biotypos.gr,"Το Ιατρικό Διαγνωστικό Κέντρο - Βιότυπος παρέχει σε όλους τους κατόχους της «Κάρτας Νέων», καθώς και στα μέλη των οικογενειών τους (α’ βαθμού συγγένειας) τα εξής προνόμια"
"ΟΥΛΩΦ ΠΑΛΜΕ 13, ΤΚ 15771, ΖΩΓΡΑΦΟΥ",2107470710,Ζωγράφου,"Οφθαλμιατροι/Οδοντιατροι/Αλλοι Γιατροι, ΥΓΕΙΑ & ΟΜΟΡΦΙΑ",www.biotypos.gr,"Το Ιατρικό Διαγνωστικό Κέντρο - Βιότυπος παρέχει σε όλους τους κατόχους της «Κάρτας Νέων», καθώς και στα μέλη των οικογενειών τους (α’ βαθμού συγγένειας) τα εξής προνόμια"
ΠΑΤΗΣΣΙΩΝ 173 ΤΚ 11252 ΑΘΗΝΑ,2108670052,Αθήνα,"Οφθαλμιατροι/Οδοντιατροι/Αλλοι Γιατροι, ΥΓΕΙΑ & ΟΜΟΡΦΙΑ",www.biotypos.gr,"Το Ιατρικό Διαγνωστικό Κέντρο - Βιότυπος παρέχει σε όλους τους κατόχους της «Κάρτας Νέων», καθώς και στα μέλη των οικογενειών τους (α’ βαθμού συγγένειας) τα εξής προνόμια"
Α. ΠΑΠΑΝΔΡΕΟΥ 2 ΚΑΙ ΣΕΡΙΦΟΥ 2 ΤΚ 15127 ΜΕΛΙΣΣΙΑ,2106095590,Μελίσσια,"Οφθαλμιατροι/Οδοντιατροι/Αλλοι Γιατροι, ΥΓΕΙΑ & ΟΜΟΡΦΙΑ",www.biotypos.gr,"Το Ιατρικό Διαγνωστικό Κέντρο - Βιότυπος παρέχει σε όλους τους κατόχους της «Κάρτας Νέων», καθώς και στα μέλη των οικογενειών τους (α’ βαθμού συγγένειας) τα εξής προνόμια"
"ΙΕΡΑ ΟΔΟΣ 281, ΤΚ12244, ΑΙΓΑΛΕΩ",2105989859,Αιγάλεω,"Οφθαλμιατροι/Οδοντιατροι/Αλλοι Γιατροι, ΥΓΕΙΑ & ΟΜΟΡΦΙΑ",www.biotypos.gr,"Το Ιατρικό Διαγνωστικό Κέντρο - Βιότυπος παρέχει σε όλους τους κατόχους της «Κάρτας Νέων», καθώς και στα μέλη των οικογενειών τους (α’ βαθμού συγγένειας) τα εξής προνόμια"
"ΠΕΡΙΚΛΕΟΥΣ 39, ΤΚ15561, ΧΟΛΑΡΓΟΣ",2106541832,Χολαργός,"Οφθαλμιατροι/Οδοντιατροι/Αλλοι Γιατροι, ΥΓΕΙΑ & ΟΜΟΡΦΙΑ",www.biotypos.gr,"Το Ιατρικό Διαγνωστικό Κέντρο - Βιότυπος παρέχει σε όλους τους κατόχους της «Κάρτας Νέων», καθώς και στα μέλη των οικογενειών τους (α’ βαθμού συγγένειας) τα εξής προνόμια"
"ΛΕΟΦΩΡΟΣ ΠΕΝΤΕΛΗΣ 13, ΤΚ 15233, ΧΑΛΑΝΔΡΙ",2106894509,Χαλάνδρι,"Οφθαλμιατροι/Οδοντιατροι/Αλλοι Γιατροι, ΥΓΕΙΑ & ΟΜΟΡΦΙΑ",www.biotypos.gr,"Το Ιατρικό Διαγνωστικό Κέντρο - Βιότυπος παρέχει σε όλους τους κατόχους της «Κάρτας Νέων», καθώς και στα μέλη των οικογενειών τους (α’ βαθμού συγγένειας) τα εξής προνόμια"
"Γραβιά, TK 330 57, Γραβιά Φωκίδας",2265091735,Φωκίδα,"Αλλο, Μουσεια/Γκαλερι/Αξιοθεατα",www.chanigravias.gr,"50% επί της τιμής του εισιτηρίου των 4,00 ευρώ που ισχύει για την ε λόγω ηλικιακή κατηγορία της Κάρτας Νέων (13-30), καθώς και έκπτωση 10% επί των τιμών πώλησης των ειδών και προϊόντων που διατίθενται στο Θεματικό Πωλητήριο του Χανίου."
"ΚΑΡΑΝΑΣΙΟΥ 1, ΤΚ 42100, ΤΡΙΚΑΛΑ",2431074777,Τρίκαλα,Ξενοδοχεια,,20% ΣΤΗ ΔΙΑΜΟΝΗ Β/Β (ΜΕ ΠΡΩΙΝΟ).
"Αχαρνών 424, ΤΚ 11143, Πατήσια",2102528185,"Αθήνα,Πατήσια","Καφετεριες, ΦΑΓΗΤΟ & ΠΟΤΟ",www.facebook.com/Cafe-Soledad-%CE%9C%CE%B9%CE%BA%CF%81%CE%BF%CE%B3%CE%B5%CF%8D%CF%83%CE%B5%CE%B9%CF%82-145739122186236,10% επί του τιμοκαταλόγου.
"Πλατείας Αγίου Μάρκου 15, ΤΚ 29100, Ζάκυνθος",2695048982,Ζάκυνθος,"Μουσεια/Γκαλερι/Αξιοθεατα, ΠΟΛΙΤΙΣΜΟΣ & ΨΥΧΑΓΩΓΙΑ",www.zakynthos-museumsolomos.gr,50% στο εισιτήριο εισόδου.
"Παύλου Μελά 11, ΤΚ 12131, Περιστέρι",2108835618,"Αθήνα,Περιστέρι","Αλλο, Μαθηματα Χορου/Θεατρου/Τεχνης, ΜΟΡΦΩΣΗ & ΕΚΠΑΙΔΕΥΣΗ",www.groovehousestudios.gr,"Έκπτωση 10% στο σεμινάριο Ερμηνευτικής προσέγγισης με τη Νατάσσα Μποφίλιου,
10% στο σεμινάριο δημιουργικής γραφής με τον Γεράσιμο Ευαγγελάτο,
10% στο σεμινάριο μελοποίησης με το Θέμη Καραμουρατίδη,
10% στο εργαστήριο μακιγιάζ,
10% στα ιδιαίτερα μαθήματα φωνητικής."
"ΕΥΣΤΑΘΙΟΥ ΚΑΡΕΛΙΑ 13, ΚΑΛΑΜΑΤΑ",2721095346,Καλαμάτα,"ΜΟΡΦΩΣΗ & ΕΚΠΑΙΔΕΥΣΗ, Σεμιναρια Επαγγελματικης Καταρτισης & Επιμορφωσης",WWW.AREADNE.GR,"25% στα εξ αποστάσεως σεμινάρια μοριοδότησης για τις προκηρύξεις των Σχολείων Δεύτερης Ευκαιρίας, Δημόσια ΙΕΚ, ΙΕΚ ΟΑΕΔ και Κέντρα Δια Βίου Μάθησης Δήμων.

25% έκπτωση για την απόκτηση πιστοποιητικού γνώσης πληροφορικής αναγνωρισμένο από τον ΑΣΕΠ."
"Πίνδου 20, Καλαμπάκα, Τρίκαλα",2432024959,Τρίκαλα,Μουσεια/Γκαλερι/Αξιοθεατα,www.meteoramuseum.gr,20% επί του εισιτηρίου εισόδου και 20% για τις αγορές από το πωλητήριο του Μουσείου.
"Χειμάρας 5 Ρέθυμνο, Κρήτη",2831052530,Ρέθυμνο,"Μουσεια/Γκαλερι/Αξιοθεατα, ΠΟΛΙΤΙΣΜΟΣ & ΨΥΧΑΓΩΓΙΑ",www.cca.gr,50% στο εισιτήριο εισόδου.
,reservations@staygenerator.com,,"Αλλο, ΤΟΥΡΙΣΜΟΣ",www.staygenerator.com,"Η Generator είναι μια από τις κορυφαίες εταιρίες κοινόχρηστων καταλυμάτων και lifestyle στον κόσμο, καθώς είναι γνωστή για την υψηλή ποιότητα υπηρεσιών και τις φιλικές τιμές της πάντα με γνώμονα την εμπειρία.



Τα καταλύματα βρίσκονται στις κεντρικότερες τοποθεσίες σε 15 προορισμούς σε όλη την Ευρώπη, συμπεριλαμβανομένων της Μαδρίτης, της Βαρκελώνης, του Παρισιού, της Ρώμης, του Βερολίνου, της Βενετίας, του Αμβούργου, του Άμστερνταμ, του Λονδίνου, του Δουβλίνου, της Στοκχόλμης, της Κοπεγχάγης.




Χρίστηκε από την Fast Company μέσα στις 50 κορυφαίες πιο καινοτόμες παγκόσμιες εταιρείες.



Πώς να χρησιμοποιήσετε την έκπτωση;



- Βάλτε τον κωδικό GENEYCA κατά την κράτηση μέσω της ιστοσελίδας.



- Πρέπει να είστε κάτοχος της Ευρωπαϊκής Κάρτας Νέων κατά τη στιγμή της κράτησης.



- Θα σας ζητηθεί να δείξετε μια Ευρωπαϊκή Κάρτα Νέων κατά την άφιξή σας στο κατάλυμα.



- Σε περίπτωση που δεν δείξετε έγκυρη Ευρωπαϊκή Κάρτας Νέων, η κράτησή σας θα ακυρωθεί αυτόματα, με το ενδεχόμενο να ισχύει ποινή χρέωσης."
"Λεωφόρος Αλεξάνδρας 31Α, ΤΚ 11473, Αθήνα",2121068629,Αθήνα,"ΜΟΡΦΩΣΗ & ΕΚΠΑΙΔΕΥΣΗ, Σχολες Ξενων Γλωσσων",www.euphoriayouthlab.eu,20% στα ταχύρυθμα τμήματα ξένων γλωσσών.
"Δ. Γούναρη 227, ΤΚ 16674, Γλυφάδα",2109639049,"Αθήνα,Γλυφάδα","Αλλο, Ενοικίαση/Πώληση Κατοικιών, Λογιστικα/Φοροτεχνικα, ΜΟΡΦΩΣΗ & ΕΚΠΑΙΔΕΥΣΗ, Σεμιναρια Επαγγελματικης Καταρτισης & Επιμορφωσης, ΥΠΗΡΕΣΙΕΣ",www.mbc.gr,"20% σε υπηρεσίες λογιστηρίου,

50% σε έξοδα λογιστηρίου σε start ups,

20% σε ενοικίαση γραφείου,

20% σε ενοικίαση για φορολογική έδρα,

15% σε ενοικίαση χώρων εκδηλώσεων,

20% στα εκπαιδευτικά σεμινάρια."
"Τρίκλινο, Κέρκυρα",2661049968,Κέρκυρα,"Αλλο, ΚΑΤΑΣΤΗΜΑΤΑ",www.corfustore.gr,10% για αγορές άνω των 20 ευρώ.
"Λ.  Ασκληπιού 27, Λυγουριό, Αργολίδα",2753022587,"Αργολίδα,Λυγουριό","Μουσεια/Γκαλερι/Αξιοθεατα, ΠΟΛΙΤΙΣΜΟΣ & ΨΥΧΑΓΩΓΙΑ",,50% επί του εισιτηρίου γενικής εισόδου στο μουσείο.
"Εθνικής Αντιστάσεως και Σκαλτσά, Καλάβρυτα",2107210052,Καλάβρυτα,Ξενοδοχεια,www.kalavritacanyon.gr,15% στις επίσημες αναρτημένες τιμές ανά δωμάτιο.
"ΚΟΥΜΠΑΡΗ 1, ΤΚ 106-74, ΑΘΗΝΑ",2103671000,Αθήνα,"Μουσεια/Γκαλερι/Αξιοθεατα, ΠΟΛΙΤΙΣΜΟΣ & ΨΥΧΑΓΩΓΙΑ",WWW.BENAKI.GR,Έκπτωση 20%.
"Πλατεία Λασσάνη 14, Κοζάνη",2461022505,Κοζάνη,"Ξενοδοχεια, ΤΟΥΡΙΣΜΟΣ",www.anesis-hotel.gr,15% σε όλους τους διαθέσιμους τύπους δωματίων (RR).
"ΑΣΠΡΗ ΠΛΑΚΑ, ΤΚ 22010, ΒΥΤΙΝΑ, ΑΡΚΑΔΙΑ",2795029029,"Αρκαδία,Βυτίνα",Ξενοδοχεια,,Έκπτωση 15%.
"ΕΥΡΙΠΙΔΟΥ 18 & ΑΙΟΛΟΥ, ΤΚ 10559, ΑΘΗΝΑ",2103231164,Αθήνα,"Αλλο, Μαθηματα Χορου/Θεατρου/Τεχνης, ΜΟΡΦΩΣΗ & ΕΚΠΑΙΔΕΥΣΗ",WWW.KEM-ANOGIANAKIS.GR,25% ΕΚΠΤΩΣΗ ΣΕ ΟΛΑ ΤΑ ΣΕΜΙΝΑΡΙΑ ΟΡΓΑΝΩΝ ΚΑΙ ΤΡΑΓΟΥΔΙΟΥ.
"ΛΥΚΟΥΡΓΟΥ ΛΟΓΟΘΕΤΗ 141, ΤΚ 83200, ΚΑΡΛΟΒΑΣΙ, ΣΑΜΟΣ",2273034108,Σάμος,"ΜΟΡΦΩΣΗ & ΕΚΠΑΙΔΕΥΣΗ, Σεμιναρια Επαγγελματικης Καταρτισης & Επιμορφωσης",www.mekaegean.gr,Έκπτωση 10%.
"ΑΓΙΟΥ ΝΙΚΟΛΑΟΥ 21, ΤΚ 26221, ΠΑΤΡΑ",2610273671,Πάτρα,"Αλλο, ΚΑΤΑΣΤΗΜΑΤΑ",www.facebook.com/Lainis.Jewelry,Έκπτωση 10% σε επιλεγμένα προϊόντα.
"Άγιος Λουκάς, TK 84600, Μύκονος",2289026563,Μύκονος,"Αλλο, Ενοικιαζομενα Δωματια/Ξενωνες, Ενοικιασεις Αυτοκινητων,Ποδηλατων,Μοτοσυκλετων, Σκαφών, Ξενοδοχεια, ΤΑΞΙΔΙΑ & ΜΕΤΑΦΟΡΕΣ, ΤΟΥΡΙΣΜΟΣ",www.azzurrotravel.gr,"20% έκπτωση στο ξενοδοχείο ATLANTIS BEACH RESIDENCE για τους μήνες Απρίλιο, Μάιο, Σεπτέμβριο, Οκτώβριο. 

20% στο ξενοδοχείο ANAGRAM BOUTIQUE HOTEL για τους μήνες Απρίλιο, Μάιο, Σεπτέμβριο, Οκτώβριο. 


20% στο ξενοδοχείο EDEM GARDEN RESIDENCE για τους μήνες Απρίλιο, Μάιο, Σεπτέμβριο, Οκτώβριο.


20% στο ξενοδοχείο ELENA STUDIOS AND SUITES για τους μήνες Απρίλιο, Μάιο, Σεπτέμβριο, Οκτώβριο.


15% στο ξενοδοχείο ATLANTIS BEACH RESIDENCE για τους μήνες Ιούνιο, Ιούλιο, Αύγουστο.


10% στο ξενοδοχείο ANAGRAM BOUTIQUE HOTEL για τους μήνες Ιούνιο, Ιούλιο, Αύγουστο.


10% στο ξενοδοχείο ELENA STUDIOS AND SUITES για τους μήνες Ιούνιο, Ιούλιο, Αύγουστο.


10% έκπτωση σε (10) διαφορετικά καταλύματα που συνεργάζεται η επιχείρηση από το μήνα Απρίλιο έως και το μήνα Οκτώβριο.


20% έκπτωση στις υπηρεσίες μεταφορών τις εταιρίας εντός της νήσου Μυκόνου. 


10% σε ενοικίασή αυτοκινήτων και δίτροχων οχημάτων σε όλους τους τύπους.


20% έκπτωση στην ενοικίαση ιστιοπλοϊκού σκάφους.


20% έκπτωση για συμμετοχή σε οργανωμένες εκδρομές με ιστιοπλοϊκό σκάφος.


10% έκπτωση για συμμετοχή σε όλες τις οργανωμένες εκδρομές στο νησί της Μυκόνου (Εκδρομή στο νησί της Δήλου με ξενάγηση, Γύρος νησιού κτλπ)."
"ΠΑΝΟΡΑΜΑ ΚΑΛΛΙΦΥΤΟΥ, ΤΚ 66100, ΔΡΑΜΑ",6936947707,Δράμα,"ΑΘΛΗΤΙΣΜΟΣ, Αλλο, Υπαιθρια Σπορ",WWW.MULTIPLETRAILS.COM,15% ΕΚΠΤΩΣΗ ΣΕ ΟΛΕΣ ΤΙΣ ΔΡΑΣΕΙΣ ΟΡΕΙΝΗΣ ΠΟΔΗΛΑΣΙΑΣ & ΠΕΖΟΠΟΡΙΑΣ ΚΑΙ ΣΤΑ ΥΠΑΙΘΡΙΑ ΣΠΟΡ.
"Θεσσαλονίκης 82, ΤΚ 60134, Κατερίνη",2351181287,Κατερίνη,"Αλλο, Ινστιτούτα Αισθητικής / BEAUTY Ticket, ΥΓΕΙΑ & ΟΜΟΡΦΙΑ",WWW.FACEBOOK.COM/%CE%9C%CE%9A-%CE%9A%CE%AD%CE%BD%CF%84%CF%81%CE%BF-%CE%A0%CE%BF%CE%B4%CE%BF%CE%BB%CE%BF%CE%B3%CE%AF%CE%B1%CF%82-%CE%9A%CE%B1%CE%BB%CE%BB%CF%89%CF%80%CE%B9%CF%83%CE%BC%CE%BF%CF%8D-%CE%86%CE%BA%CF%81%CF%89%CE%BD-105201944437557/?__TN__=KC-R&EID=ARAREHTV43ZRJFPTCKHWBL49SPM2C4JS5-VHUNIZW3XFYDOGGSI7WNMPBQMTRLOURDQMVAGJ4YI-G-DA&HC_REF=ARRR3N_VB42ZBNCKOQ_2FFO_T1KZIWKEPOSI79RUJ-V47XV_XGWWGQW6HHOSCJWJI_O&FREF=NF&__XTS__[0]=68.ARDYHZALBLY41K68YC230ZXUGAVKVUAMTWDU5PVMCUZNJWA226DVHD1E3ZG3H-T3JCGFJ9YJYISILJ-4FXJPLA_U_KWNZAPAEHULEWNZGLI-OWSZUQGYU5HQCAK2BUE_BTQO6TA7XZIQO-4D8JERQ1LBNTDAAZAFURFK442EJDJEE1Z4M6O5YVDX4NB4ZWXNIIXCZTCZJLK9_HSKGNF1WLQZJHHNWCSGN3ZRH5WF62E_MJ9HMEH2K4EFVZHXPDKSBPIAU78HZ0W6Q6HNCI2ANOTWDTNLKVBDSS08QIFA-V6QTZ8_AOYB3BTMRJ-P9NWGBVUVSEPVHWPXHLE3_RI9SRW,10% έκπτωση σε υπηρεσίες περιποίησης χεριών - ποδιών.
ΧΡΥΣΟΛΩΡΑ 12 ΠΕΡΙΣΤΕΡΙ 12132,2105756800,Περιστέρι,"ΜΟΡΦΩΣΗ & ΕΚΠΑΙΔΕΥΣΗ, Σεμιναρια Επαγγελματικης Καταρτισης & Επιμορφωσης",www.firsthelp.gr,15% έκπτωση επί του αρχικού κόστους του κάθε εκπαιδευτικού προγράμματος.
"ΕΔΕΣΣΗΣ 17, ΤΚ 59132, ΒΕΡΟΙΑ",2331120342,Βέροια,"ΜΟΡΦΩΣΗ & ΕΚΠΑΙΔΕΥΣΗ, Σεμιναρια Επαγγελματικης Καταρτισης & Επιμορφωσης, Σχολες Ξενων Γλωσσων",www.akadimoskek.gr,10% στα εκπαιδευτικά προγράμματα.
"Βίγλα, Βαρειά Μυτιλήνη, Λέσβος",2251045857,Λέσβος,"Ξενοδοχεια, ΤΟΥΡΙΣΜΟΣ",www.heliotrope.gr,10% έκπτωση στις τιμές διανυκτέρευσης της επίσημης ιστοσελίδας www.heliotrope.gr.
"Γερακάρη 25, ΤΚ 74100, Ρέθυμνο",2831036121,Ρέθυμνο,"ΜΟΡΦΩΣΗ & ΕΚΠΑΙΔΕΥΣΗ, Σεμιναρια Επαγγελματικης Καταρτισης & Επιμορφωσης",www.eeli.edu.gr/portfolio/electronic-book,15% στις υπηρεσίες.
"ΣΤΑΜΑΘΙΟΥΔΑΚΗ 98 ΚΟΥΜΠΕΣ, TK 74100, ΡΕΘΥΜΝΟ",2831024111,Ρέθυμνο,"Αλλο, ΜΟΡΦΩΣΗ & ΕΚΠΑΙΔΕΥΣΗ",WWW.MBS.COM.GR,-20% ΣΤΙΣ ΕΙΔΙΚΟΤΗΤΕΣ 2ΕΤΟΥΣ ΦΟΙΤΗΣΗΣ.
"ΣΟΦΟΚΛΕΟΥΣ 9, ΤΚ 81132, ΜΥΤΙΛΗΝΗ",2251040200,Μυτιλήνη,Ξενοδοχεια,WWW.PYRGOSSOFOKLEOUS.GR,10% ΕΚΠΤΩΣΗ ΕΠΙ ΤΗΣ ΤΙΜΗΣ ΤΟΥ ΔΩΜΑΤΙΟΥ ΧΩΡΙΣ ΤΟ ΦΟΡΟ ΔΙΑΝΥΚΤΕΡΕΥΣΗΣ.
"ΑΝΩΓΕΙΩΝ 36, ΤΚ 71304, ΗΡΑΚΛΕΙΟ ΚΡΗΤΗΣ",2813008298,Ηράλειο Κρήτης,Υπηρεσιες Υγειας,,ΣΤΗΝ ΠΡΩΤΗ ΕΠΙΣΚΕΨΗ ΑΠΌ 30€ ΣΤΑ 25€ ΚΑΙ ΟΙ ΕΠΟΜΕΝΕΣ ΔΙΑΤΡΟΦΕΣ (ΔΕΚΑΗΜΕΡΕΣ) ΑΠΟ 20€ ΣΤΑ 15€.
"ΑΛΕΞΕΙΚΑ, ΠΙΝΑΚΑΤΕΣ ΠΗΛΙΟΥ, ΤΚ 37010, ΜΑΓΝΗΣΙΑ",6972207251,Πήλιο,"Ενοικιαζομενα Δωματια/Ξενωνες, ΤΟΥΡΙΣΜΟΣ",www.efipoi.gr,10% στις υπηρεσίες διαμονής επί των αναγραφόμενων τιμών των υπηρεσιών αυτόν.
"25ης Αυγούστου 17, 71202 Ηράκλειο Κρήτη",18175 ή 8011175000,"Αθήνα,Ηράλειο Κρήτης,Πειραιάς","Λεωφορεια/Τρενα/Αεροπλανα/Πλοια, ΤΑΞΙΔΙΑ & ΜΕΤΑΦΟΡΕΣ",www.minoan.gr,"20% έκπτωση στα εισιτήρια, σε όλες τις κατηγορίες θέσεων επιβατών (εκτός Deck και VIP Seats στο εσωτερικό  και Junior Suites και Delux Cabins στο εξωτερικό), στις γραμμές της Κρήτης και της Αδριατικής που δραστηριοποιείται η εταιρεία, επί των αναγραφόμενων τιμών των υπηρεσιών / προϊόντων αυτών."
"ΤΣΟΝΤΟΥ ΒΑΡΔΑ 21, T.K 73100, ΧΑΝΙΑ ΚΡΗΤΗ",2821057629,Χανιά,"Ινστιτούτα Αισθητικής / BEAUTY Ticket, ΥΓΕΙΑ & ΟΜΟΡΦΙΑ",,"20% ΣΤΗΝ LASER ΑΠΟΤΡΙΧΩΣΗ, 30% ΣΤΟ ΚΑΘΑΡΙΣΜΟ ΠΡΟΣΩΠΟΥ."
"ΜΠΕΤΤΟΛΟ 1, Τ.Κ 73100, ΧΑΝΙΑ",2821504684,Χανιά,"Ενοικιαζομενα Δωματια/Ξενωνες, Ξενοδοχεια, ΤΟΥΡΙΣΜΟΣ",www.facebook.com/EliaHotels/,Έκπτωση στα παρακάτω ξενοδοχεία και ενοικιαζόμενα δωμάτια
"ΑΝΔΡΕΟΥ ΚΡΗΤΗΣ 1, ΤΚ 71202, ΗΡΑΚΛΕΙΟ ΚΡΗΤΗΣ",2810281025,Ηράλειο Κρήτης,"ΥΓΕΙΑ & ΟΜΟΡΦΙΑ, Υπηρεσιες Υγειας",WWW.ADASKALAKIS.GR,10% ΣΕ ΟΛΕΣ ΤΙΣ ΥΠΗΡΕΣΙΕΣ.
"ΕΛΕΥΘΕΡΙΟΥ ΒΕΝΙΖΕΛΟΥ 17, TK 38333, ΒΟΛΟΣ",6974797437,Βόλος,Υπηρεσιες Υγειας,WWW.AKOTOULAS.COM,20% σε κάθε συνεδρία.
"ΑΚΤΗ ΚΟΥΝΤΟΥΡΙΩΤΗ, ΤΚ 73136, ΧΑΝΙΑ",2821074484,Χανιά,"Μουσεια/Γκαλερι/Αξιοθεατα, ΠΟΛΙΤΙΣΜΟΣ & ΨΥΧΑΓΩΓΙΑ",www.mar-mus-crete.gr,10% στα είδη πωλητηρίου.
"ΠΙΣΩ ΛΕΙΒΑΔΙ, ΤΚ 84400, ΠΑΡΟΣ",2284045053,Πάρος,"ΚΑΤΑΣΤΗΜΑΤΑ, Μοδα",WWW.SEGNO.GR,10% ΣΕ ΟΛΑ ΤΑ ΕΙΔΗ.
"ΥΠΑΠΑΝΤΗΣ & ΕΥΡΥΤΑΝΙΑΣ 2, TK 19016, ΑΡΤΕΜΙΔΑ ΑΤΤΙΚΗΣ",6982790636,"Αθήνα,Μύκονος","Ενοικιασεις Αυτοκινητων,Ποδηλατων,Μοτοσυκλετων, Σκαφών, ΤΑΞΙΔΙΑ & ΜΕΤΑΦΟΡΕΣ",WWW.FACEBOOK.COM/MRROYALTRAVEL,25% ΕΚΠΤΩΣΗ ΣΕ ΕΝΟΙΚΙΑΣΗ ΑΥΤΟΚΙΝΗΤΩΝ ΣΤΗ ΜΥΚΟΝΟ & 15% ΕΚΠΤΩΣΗ ΣΕ ΕΝΟΙΚΙΑΣΗ ΑΥΤΟΚΙΝΗΤΩΝ ΣΤΗΝ ΑΘΗΝΑ
"25ης Μαρτίου και Παραλία, Τ.Κ 54646, Θεσσαλονίκη",2310895800,Θεσσαλονίκη,"ΠΟΛΙΤΙΣΜΟΣ & ΨΥΧΑΓΩΓΙΑ, Συναυλιες/Φεστιβαλ/Εκδηλωσεις",http,10% έκπτωση ίση με το εκάστοτε φοιτητικό εισιτήριο. Ισχύει για παραγωγές του ΟΜΜΘ.
"ΚΟΛΟΚΟΤΡΩΝΗ  41, TK 56430, ΣΤΑΥΡΟΥΠΟΛΗ, ΘΕΣΣΑΛΟΝΙΚΗ",2311821925,Θεσσαλονίκη,"Αλλο, ΜΟΡΦΩΣΗ & ΕΚΠΑΙΔΕΥΣΗ",,15% ΕΚΠΤΩΣΗ ΣΤΑ ΔΙΔΑΚΤΡΑ ΟΛΩΝ ΤΩΝ ΤΑΞΕΩΝ ΓΥΜΝΑΣΙΟ ΛΥΚΕΙΟ.
"ΦΡΥΝΗΣ 10, ΤΚ 17563, ΠΑΛΑΙΟ ΦΑΛΗΡΟ",2109840232,"Αθήνα,Παλαιό Φάληρο",Κομμωτηρια,,28% ΕΚΠΤΩΣΗ ΣΕ ΑΝΔΡΙΚΟ ΚΑΙ ΠΑΙΔΙΚΟ ΚΟΥΡΕΜΑ.
"Δαμάρεως 84, ΤΚ 11633, Βύρωνας",6984170423,"Αθήνα,Βύρωνας",Υπηρεσιες Υγειας,,40% στη τιμή ατομικών συνεδριών ψυχοθεραπείας.
"Νεάπολη, TK 23053,Ελαφόνησος",2734061200,"Ελαφόνησος,Σπάρτη","Ενοικιαζομενα Δωματια/Ξενωνες, Ινστιτούτα Αισθητικής / BEAUTY Ticket, ΤΟΥΡΙΣΜΟΣ",WWW.CAPARISUITES.GR,30% στη διαμονή και στις υπηρεσίες αισθητικής.
"ΠΕΛΛΗΝΗΣ 8, 11251, ΑΘΗΝΑ",2108899600,Αθήνα,ΜΟΡΦΩΣΗ & ΕΚΠΑΙΔΕΥΣΗ,www.medcollege.edu.gr,ΕΚΠΤΩΣΗ 30% ΣΤΑ ΔΙΔΑΚΤΡΑ ΤΟΥ ΚΟΛΕΓΙΟΥ ΣΕ ΟΛΑ ΤΑ ΕΚΠΑΙΔΕΥΤΙΚΑ ΠΡΟΓΡΑΜΜΑΤΑ
ΡΕΘΥΜΝΟΥ 2 10682 ΑΘΗΝΑ,2108217710,Αθήνα,"ΜΟΡΦΩΣΗ & ΕΚΠΑΙΔΕΥΣΗ, Σχολες Ξενων Γλωσσων",alexander-edu.org,15% στα δίδακτρα.
"5 Συντάγματος 24, Τ.Κ 42100, Τρίκαλα",2431078703,Τρίκαλα,"ΜΟΡΦΩΣΗ & ΕΚΠΑΙΔΕΥΣΗ, Σχολες Ξενων Γλωσσων",www.wizzkids.gr,20% στα δίδακτρα ξένων γλωσσών.
"Αλαμάνας 9, Άγιος Παύλος, Θεσσαλονίκη",2310215629,Θεσσαλονίκη,"ΜΟΡΦΩΣΗ & ΕΚΠΑΙΔΕΥΣΗ, Σεμιναρια Επαγγελματικης Καταρτισης & Επιμορφωσης",www.usbngo.gr,"10% σε όλα τα σεμινάρια ξένων γλωσσών, digital και εκπαιδευτικά."
Κορίνθου 271,2610622682,Πάτρα,"Αλλο, ΥΠΗΡΕΣΙΕΣ",www.ekatoikia.gr,10% σε όλες τις υπηρεσίες.
"Γιαννιτσών και Λαχανά, Συγκρότημα Τσαλαπάτα",2421006366,Βόλος,"ΜΟΡΦΩΣΗ & ΕΚΠΑΙΔΕΥΣΗ, Σεμιναρια Επαγγελματικης Καταρτισης & Επιμορφωσης",www.learning.uth.gr,"15% στα προγράμματα επιμόρφωσης, συνεχιζόμενης επαγγελματικής κατάρτισης, εκπαίδευσης ενηλίκων και γενικότερα όλων των εν γένει προγραμμάτων σπουδών Διά Βίου Μάθησης."
"ΓΡΗΓΟΡΙΟΥ ΛΑΜΠΡΑΚΗ 214, 54352, ΘΕΣΣΑΛΟΝΙΚΗ",2313086842,Θεσσαλονίκη,"Αλλο, ΥΓΕΙΑ & ΟΜΟΡΦΙΑ, Υπηρεσιες Υγειας",WWW.DROSOSTALIDA.GR,15% ΣΤΙΣ ΑΤΟΜΙΚΕΣ ΣΥΝΕΔΡΙΕΣ ΕΠΙ ΤΩΝ ΑΝΑΓΡΑΦΟΜΕΝΩΝ ΤΙΜΩΝ ΤΟΥΣ.
"Σταδίου 5 Αθήνα, Αττική",2103689354,Αθήνα,"ΜΟΡΦΩΣΗ & ΕΚΠΑΙΔΕΥΣΗ, Σεμιναρια Επαγγελματικης Καταρτισης & Επιμορφωσης",elearn.elke.uoa.gr,30% στα προγράμματα συμπληρωματικής εξ αποστάσεως εκπαίδευσης του Κέντρου Συνεχιζόμενης Εκπαίδευσης & Επιμόρφωσης του Ε.Κ.Π.Α.
"Ηλιουπόλεως & Π. Τσαλδάρη 63, Νίκαια, Αττική",2104256830,"Αθήνα,Νίκαια","ΜΟΡΦΩΣΗ & ΕΚΠΑΙΔΕΥΣΗ, Σεμιναρια Επαγγελματικης Καταρτισης & Επιμορφωσης",www.labtech.gr,25% σε σεμινάρια επαγγελματικής κατάρτισης και επιμόρφωσης.
"Στεργιογιάννη 1, Τ.Κ 71305, Ηράκλειο Κρήτης",6974179678,Ηράλειο Κρήτης,"Αλλο, Καφετεριες, Μαθηματα Χορου/Θεατρου/Τεχνης, ΜΟΡΦΩΣΗ & ΕΚΠΑΙΔΕΥΣΗ, Σεμιναρια Επαγγελματικης Καταρτισης & Επιμορφωσης",www.nefeleonas.gr,"20% σε μαθήματα Χορού/ Θεάτρου/ Τέχνης,

20% σε σεμινάρια επαγγελματικής Κατάρτισης και Επιμόρφωσης,

20% σε όλα τα είδη του καταλόγου του καφέ του  πολυχώρου."
"Πινδάρου 6 και Ακαδημίας, ΤΚ 10671, Αθήνα",2114110044,Αθήνα,"Αλλο, ΚΑΤΑΣΤΗΜΑΤΑ",www.kotsanas.com,"Τελική Τιμή εισιτηρίου 3,5 ευρώ και έκπτωση στο πωλητήριο του Μουσείου (πιστά αντίγραφα εφευρέσεων - 10% επί της αρχικής τιμής πώλησης)."
"Λεωφόρος Πεντέλης 2, Πλατεία Δούρου, Χαλάνδρι, Αττική",2106801333,Χαλάνδρι,"ΜΟΡΦΩΣΗ & ΕΚΠΑΙΔΕΥΣΗ, Σεμιναρια Επαγγελματικης Καταρτισης & Επιμορφωσης",www.el-translations.com,30% σε όλα τα Σεμινάρια Επαγγελματικής Κατάρτισης και Επιμόρφωσης.
"Ακτή Κονδύλη 24, 18545, Πειραιάς",210 41 97 400,"Αθήνα,Πειραιάς","Λεωφορεια/Τρενα/Αεροπλανα/Πλοια, ΤΑΞΙΔΙΑ & ΜΕΤΑΦΟΡΕΣ",www.anek.gr,"20% σε όλες τις υπηρεσίες μεταφοράς για τις δρομολογιακές γραμμές Πάτρα - Ηγουμενίτσα – Κέρκυρα - Ανκόνα, Ανκόνα – Κέρκυρα – Ηγουμενίτσα - Πάτρα, Βενετία -Κέρκυρα – Ηγουμενίτσα - Πάτρα, Πάτρα – Ηγουμενίτσα – Κέρκυρα - Βενετία καθώς και Πάτρα – Ηγουμενίτσα – Κέρκυρα - Μπάρι, Μπάρι – Κέρκυρα – Ηγουμενίτσα - Πάτρα.

Η έκπτωση αφορά τα εισιτήρια επιβατών για τις ως άνω δρομολογιακές γραμμές ανεξαρτήτως θέσης και αναλόγως διαθεσιμότητας.

Η έκπτωση δεν ισχύει αθροιστικά με τις εκπτώσεις / προσφορές του καταλόγου της Εταιρείας."
"6 χλμ Οδού Θεσσαλονίκης - Θέρμης, ΤΚ 57001, Θεσσαλονίκη",2310483000,Θεσσαλονίκη,"Αλλο, Κινηματογραφοι/Θεατρα, Μουσεια/Γκαλερι/Αξιοθεατα, ΠΟΛΙΤΙΣΜΟΣ & ΨΥΧΑΓΩΓΙΑ",www.noesis.edu.gr,Οι κάτοχοι δικαιούνται το μειωμένο εισιτήριο σε όλα τα εισιτήρια εισόδου του ΝΟΗΣΙΣ.
"Τσιμισκή 116, ΤΚ 54621, Θεσσαλονίκη",2310263876,Θεσσαλονίκη,"ΜΟΡΦΩΣΗ & ΕΚΠΑΙΔΕΥΣΗ, Σχολες Ξενων Γλωσσων",www.galileogalilei.gr,30% από την αρχική τιμή των διδάκτρων.
"Χαροκοπου 32, ΤΚ 17672, Καλλιθέα Αττική",2130299544,"Αθήνα,Καλλιθέα","Αλλο, ΥΠΗΡΕΣΙΕΣ",www.notoxic.gr,20% σε Tattoo και Piercing.
Κατάστημα Αγίου Δημητρίου,Κατάστημα Αγίου Δημητρίου,"Άγιος Δημήτριος,Ελληνικό","Αλλο, Ινστιτούτα Αισθητικής / BEAUTY Ticket, ΥΓΕΙΑ & ΟΜΟΡΦΙΑ",www.metrobeauty.gr,Παρεχόμενες με έκπτωση υπηρεσίες από τον «Συνεργάτη» στους κατόχους της «Κάρτας Νέων»
"Βουκουρεστίου 40 – 1ος όροφος, Τ.Κ. 10673, Αθήνα",210 3317312,Αθήνα,"Μαθηματα Χορου/Θεατρου/Τεχνης, ΜΟΡΦΩΣΗ & ΕΚΠΑΙΔΕΥΣΗ, Σεμιναρια Επαγγελματικης Καταρτισης & Επιμορφωσης",www.artens.gr,Έκπτωση 11% σε όλα τα μαθήματα.
"Κολοκοτρώνη 124, ΤΚ 18121, Κορυδαλλός",2105446008,Κορυδαλλός,"Εστιατορια, Καφετεριες, ΦΑΓΗΤΟ & ΠΟΤΟ",,Έκπτωση 20% στις τιμές καταλόγου της επιχείρησης.
"ΒΑΣ. Όλγας 101Β, TK 54643, Θεσσαλονίκη",6949924990,Θεσσαλονίκη,"ΜΟΡΦΩΣΗ & ΕΚΠΑΙΔΕΥΣΗ, Σεμιναρια Επαγγελματικης Καταρτισης & Επιμορφωσης",www.e-edge.weebly.com,"Έκπτωση 30% και 50% στα εξ' Αποστάσεως Επιμορφωτικά Σεμινάρια από το Διαδικτυακό Εργαστήρι Γραφής και Εικόνας e-Edge (www.e-edge.gr). Η προσφορά έκπτωσης αφορά τα μαθήματα Δημιουργική Γραφή (Έκπτωση 50%), Διήγημα - Short Story ή Παιδικό βιβλίο - Παραμύθι (Έκπτωση 30%) και ισχύει καθ' όλη τη διάρκεια του χρόνου."
"Ν.Παπανικολή 11, ΤΚ 81100, Μυτιλήνη",2251028970,Μυτιλήνη,"ΑΘΛΗΤΙΣΜΟΣ, Γυμναστηρια/Fitness",www.oxygenfitness.gr,"Έκπτωση -17 ευρώ στο βασικό πάσο της ΜΗΝΙΑΙΑΣ ΣΥΝΔΡΟΜΗΣ. Η συγκεκριμένη έκπτωση, θα ισχύει για όλες τις ημέρες."
"Ηπείρου 79-83, ΤΚ 41222, Λάρισα",2413020488,Λάρισα,"Αλλο, ΥΠΗΡΕΣΙΕΣ",www.mylanguage.gr,Έκπτωση 30% σε υπηρεσίες μετάφρασης - διερμηνείας.
"Πέτρου Ράλλη 322, TK 8453, Νίκαια",21 1182 7719,"Αθήνα,Νίκαια","Αλλο, ΠΟΛΙΤΙΣΜΟΣ & ΨΥΧΑΓΩΓΙΑ",www.e-pcdoctor.gr/index.php?route=product/category&path=70,Έκπτωση 50% στη VR Εικονική Πραγματικότητα και 10% στο Σέρβις Η/Υ.
"26ης Οκτωβρίου 35, ΤΚ 54627, Θεσσαλονίκη",2310254438,Θεσσαλονίκη,Αλλο,www.themindtrap.com/,Έκπτωση 15% επί της τελικής τιμής σε όλα τα δωμάτια απόδρασης από Δευτέρα έως και Παρασκευή.
"Κλεμανσώ 76Β, ΤΚ 67100",6942439959,Ξάνθη,"Αλλο, Αλλο",,20% έκπτωση σε νομικές υπηρεσίες.
"Δωδεκανήσου 8, ΤΚ 54626",2315537086,Θεσσαλονίκη,"Αλλο, ΚΑΤΑΣΤΗΜΑΤΑ, Μοδα",www.virsa.gr,20% έκπτωση επί των αναγραφόμενων τιμών των προϊόντων αυτών.
Σταθμός Λαρίσης,"14511 (με χρέωση 0,615/λεπτό από σταθερό & 0,984/λεπτό από κινητό τηλέφωνο)",Αθήνα,"Λεωφορεια/Τρενα/Αεροπλανα/Πλοια, ΤΑΞΙΔΙΑ & ΜΕΤΑΦΟΡΕΣ",www.trainose.gr,€15 τιμή εισιτηρίου σε επιλεγμένες αμαξοστοιχίες intercity στις γραμμές
"16ο χιλ Θεσσαλονίκης - Μελισσοχωριου Μελισσοχώρι 57018, Θεσσαλονίκη",6944387811,Μελισσοχώρι,"Αλλο, ΠΟΛΙΤΙΣΜΟΣ & ΨΥΧΑΓΩΓΙΑ",www.skaras.gr,28% στη συνδρομή της κάρτας διαρκείας για τη χρήση πισίνας για όλη τη θερινή σεζόν.
"Λιμένας Θάσου, ΤΚ 64004",2593023101,Θάσος,"Αλλο, Ασφαλειες/Τραπεζες, ΥΠΗΡΕΣΙΕΣ",www.angelidis.com.gr,"Έκπτωση 15% στην ετήσια ασφάλεια αυτοκινήτου, Πρόγραμμα ασφάλειας κατοικίας από 30 Ευρώ το χρόνο και πρόγραμμα υγείας από 190 Ευρώ το χρόνο (www.angelidis-insurance.gr).

Έκπτωση 10% στις μεσιτικές υπηρεσίες (www.thassos-realestate.gr).

Facebook page"
"Μπελούση 7 και Αγησιλάου, TK 27100",2681026643,"Αγρίνιο,Αθήνα,Καλαμάτα,Πύργος,Σπάρτη","ΜΟΡΦΩΣΗ & ΕΚΠΑΙΔΕΥΣΗ, Σεμιναρια Επαγγελματικης Καταρτισης & Επιμορφωσης",www.consulkek.gr,15 % έκπτωση σε σεμινάρια επαγγελματικής κατάρτισης και επιμόρφωσης στα παραρτήματα των εξής πόλεων
"ΔΩΔΕΚΑΝΗΣΟΥ 22, ΤΚ 54626, ΘΕΣΣΑΛΟΝΙΚΗ",6973734730,Θεσσαλονίκη,"Clubs/Διοργανωσεις/Μουσικες Σκηνες, ΠΟΛΙΤΙΣΜΟΣ & ΨΥΧΑΓΩΓΙΑ",,20% για τους κατόχους της Ευρωπαϊκής Κάρτας Νέων.
"Βασιλέως Ηρακλείου 14, TK 54625, Θεσσαλονίκη",6989238149,Θεσσαλονίκη,"ΜΟΡΦΩΣΗ & ΕΚΠΑΙΔΕΥΣΗ, Σεμιναρια Επαγγελματικης Καταρτισης & Επιμορφωσης",www.infinitygreece.com,"10% στην Premium σειρά σεμιναρίων ""How To""."
"ΒΥΡΩΝΟΣ 3, ΤΚ 54622, ΘΕΣΣΑΛΟΝΙΚΗ",2316008305,Θεσσαλονίκη,"Μαθηματα Χορου/Θεατρου/Τεχνης, ΜΟΡΦΩΣΗ & ΕΚΠΑΙΔΕΥΣΗ, Σχολες Ξενων Γλωσσων",www.babilonia.gr,10% Έκπτωση σε όλα τα σεμινάρια.
"ΝΕΟΣ ΜΑΡΜΑΡΑΣ 0, ΤΚ 63081, ΝΕΟΣ ΜΑΡΜΑΡΑΣ",2375071402,Χαλκιδική,"Καμπινγκ/Κατασκηνωσεις, ΤΟΥΡΙΣΜΟΣ",www.campingmarmaras.gr,10% έκπτωση επί των αναγραφόμενων τιμών.
"Λεωφόρος Βασιλίσσης Όλγας 135 (ύψος Π. Συνδίκα), TK 54645, Θεσσαλονίκη",2311212377,Θεσσαλονίκη,"Μαθηματα Χορου/Θεατρου/Τεχνης, ΜΟΡΦΩΣΗ & ΕΚΠΑΙΔΕΥΣΗ",www.indancestrial.gr,10% έκπτωση επί των αναγραφόμενων τιμών.
"Δημοκρίτου 7Α Κομοτηνή, Ροδόπη",2531084040,Κομοτηνή,"Βιβλιοπωλεια/CD&DVD/Χαρτικα, ΚΑΤΑΣΤΗΜΑΤΑ",www.dimokriteio.gr,"10% στα βιβλία
15% στα χαρτικά & δώρα
15% στις εκτυπώσεις"
"ΜΕΣΟΓΕΙΩΝ 2-4, ΤΚ 11527, ΑΘΗΝΑ","210 3686600, 2310 252510",Αθήνα,"Αλλο, ΥΓΕΙΑ & ΟΜΟΡΦΙΑ, Υπηρεσιες Υγειας",www.euromedica.gr,ΕΚΠΤΩΣΗ ΣΤΙΣ ΔΙΑΓΝΩΣΤΙΚΕΣ ΕΞΕΤΑΣΕΙΣ ΣΕ ΤΙΜΕΣ ΚΑΘΟΡΙΣΜΕΝΕΣ ΣΥΜΦΩΝΑ ΜΕ ΤΟΝ ΚΡΑΤΙΚΟ ΤΙΜΟΚΑΤΑΛΟΓΟ.
"ΜΕΣΟΛΟΓΓΙΟΥ 3, 10681, ΑΘΗΝΑ",2112138032,Αθήνα,"ΜΟΡΦΩΣΗ & ΕΚΠΑΙΔΕΥΣΗ, Σεμιναρια Επαγγελματικης Καταρτισης & Επιμορφωσης",WWW.PAIDEIASLOGOS.COM,30% ΕΠΙ ΤΗΣ ΤΙΜΗΣ ΜΕ ΤΜΗΜΑΤΙΚΗ ΚΑΤΑΒΟΛΗ.
"ΑΚΤΗ ΑΘ. ΔΗΛΑΒΕΡΗ 3, Τ.Κ 18533, ΠΕΙΡΑΙΑΣ","2104113201, FAX 2104227038",Πειραιάς,"Αλλο, ΜΟΡΦΩΣΗ & ΕΚΠΑΙΔΕΥΣΗ",WWW.HORC.GR,10%  ΕΚΠΤΩΣΗ ΓΙΑ ΤΑ ΜΑΘΗΜΑΤΑ ΙΣΤΙΟΠΛΟΙΑΣ (ΤΜΗΜΑ ΑΡΧΑΡΙΩΝ) ΓΙΑ ΤΗΝ ΑΠΟΚΤΗΣΗ ΤΟΥ ΠΤΥΧΙΟΥ ΙΣΤΙΟΠΛΟΙΑΣ ΕΠΙ ΤΗΣ ΙΣΧΥΟΥΣΑΣ ΤΙΜΗΣ.
"ΑΓΙΟΥ ΔΗΜΗΤΡΙΟΥ 117, Τ.Κ 54634, ΘΕΣΣΑΛΟΝΙΚΗ",2310245207,Θεσσαλονίκη,"ΑΘΛΗΤΙΣΜΟΣ, Γυμναστηρια/Fitness",WWW.FACEBOOK.COM/UNDERGROUND2310/,10% ΕΚΠΤΩΣΗ.
ΑΦΗΣΣΟΣ ΠΗΛΙΟΥ Τ.Κ 37010 ΜΗΛΙΕΣ ΜΑΓΝΗΣΙΑΣ,2423033423,ΜΗΛΙΕΣ,"Ξενοδοχεια, ΤΟΥΡΙΣΜΟΣ",www.hotel-katia.com,20%
"Ζαμίδη 3,  TK 58100 Γιαννιτσά",2382023897,Γιαννιτσά,"Λογιστικα/Φοροτεχνικα, ΥΠΗΡΕΣΙΕΣ",www.tologistiko.gr,20% σε οποιαδήποτε λογιστική υπηρεσία προς ιδιώτες.
ΜΙΧΑΗΛ ΚΑΡΑΟΛΗ 1 56625 ΘΕΣΣΑΛΟΝΙΚΗ,2310636581,Θεσσαλονίκη,"Ασφαλειες/Τραπεζες, ΥΠΗΡΕΣΙΕΣ",www.logistiki-exelixi.gr,10% ΣΕ ΛΟΓΙΣΤΙΚΕΣ ΥΠΗΡΕΣΙΕΣ
ΔΟΪΡΑΝΗΣ 56 61100 ΚΙΛΚΙΣ,2341028705,Κιλκίς,"ΜΟΡΦΩΣΗ & ΕΚΠΑΙΔΕΥΣΗ, Σεμιναρια Επαγγελματικης Καταρτισης & Επιμορφωσης",www.epimorfotiki.gr,ΕΚΠΤΩΣΗ 25% / ΕΚΜΑΘΗΣΗ  ΚΑΙ ΠΙΣΤΟΠΟΙΗΣΗ Η/Υ (3 ΒΑΣΙΚΕΣ ΕΝΟΤΗΤΕΣ).
Λεωφ. Νίκης 73 Θεσσαλονίκη,2310257900,Θεσσαλονίκη,"ΠΟΛΙΤΙΣΜΟΣ & ΨΥΧΑΓΩΓΙΑ, Συναυλιες/Φεστιβαλ/Εκδηλωσεις",www.tsso.gr,50-66% ΕΚΠΤΩΣΗ / ΕΙΣΙΤΗΡΙΟ ΤΩΝ 5 ΕΥΡΩ ΓΙΑ ΟΛΕΣ ΤΙΣ ΠΑΡΑΓΩΓΕΣ ΤΗΣ ΚΡΑΤΙΚΗΣ ΟΡΧΗΣΤΡΑΣ ΘΕΣΣΑΛΟΝΙΚΗΣ.
6 ΧΛΜ ΘΕΣΣΑΛΟΝΙΚΗΣ - ΩΡΑΙΟΚΑΣΤΡΟΥ ΤΚ 57013 ΩΡΑΙΟΚΑΣΤΡΟ,2310683110,"Θεσσαλονίκη,Ωραιόκαστρο","ΚΑΤΑΣΤΗΜΑΤΑ, Μοδα",www.minerva.gr,"15% Έκπτωση επί των αρχικών τιμών. Η έκπτωση αυτή δε συνδυάζεται με άλλη προωθητική ενέργεια και δεν ισχύει σε περιόδους εκπτώσεων και σε προϊόντα που είναι σε προσφορά. Η έκπτωση ισχύει σε όλα τα MINERVA stores στην Ελλάδα με εξαίρεση τα outlet στη Θεσσαλονίκη, ενώ δεν ισχύει στα Minerva Shop and Corners εκτός Ελλάδας.

Καταστήματα"
Ν. ΣΚΙΩΝΗ ΕΝΤΟΣ ΤΟΥ ΞΕΝΟΔΟΧΕΙΟΥ ΑΝΑΣΤΑΣΙΑ RESORT TK 63077 ΚΑΣΣΑΝΔΡΕΙΑ,"2374031408, 6972620572",Χαλκιδική,"ΑΘΛΗΤΙΣΜΟΣ, Μαθηματα Εκμαθησης Σπορ/Ενοικιασεις",www.dive-greece.gr,10% σε όλα τα προγράμματα καταδύσεων και τις δραστηριότητες
ΜΑΖΑΡΑΚΗ 7 68100 ΑΛΕΞΑΝΔΡΟΥΠΟΛΗ ΕΒΡΟΣ,2551400161,Αλεξανδρούπολη,"Αλλο, Ενοικίαση/Πώληση Κατοικιών, ΥΠΗΡΕΣΙΕΣ",www.facebook.com/Qestateagency,20% σε όλες τις υπηρεσίες μας
"ΟΙΚΟΝΟΜΟΥ 5, 54627 ΘΕΣΣΑΛΟΝΙΚΗ",2310552670,Θεσσαλονίκη,"ΜΟΡΦΩΣΗ & ΕΚΠΑΙΔΕΥΣΗ, Σεμιναρια Επαγγελματικης Καταρτισης & Επιμορφωσης",,10% ΕΚΠΤΩΣΗ ΣΤΑ ΑΥΤΟΧΡΗΜΑΤΟΔΟΤΟΥΜΕΝΑ ΠΡΟΓΡΑΜΜΑΤΑ ΚΑΤΑΡΤΙΣΗΣ.
"ΕΜΜΑΝΟΥΗΛ ΣΟΥΑΝΙΔΗ 2, 54453 ΘΕΣΣΑΛΟΝΙΚΗ",6947915229,Θεσσαλονίκη,"ΥΓΕΙΑ & ΟΜΟΡΦΙΑ, Υπηρεσιες Υγειας",WWW.KESY.GR,10% ΕΚΠΤΩΣΗ ΣΕ ΟΛΕΣ ΤΙΣ ΥΠΗΡΕΣΙΕΣ.
"ΕΜΜΑΝΟΥΗΛ ΣΟΥΑΝΙΔΗ 2, 54453 ΘΕΣΣΑΛΟΝΙΚΗ",6947915229,Θεσσαλονίκη,"Αλλο, ΜΟΡΦΩΣΗ & ΕΚΠΑΙΔΕΥΣΗ",WWW.KESY.GR,10% ΕΚΠΤΩΣΗ ΣΕ ΣΕΜΙΝΑΡΙΑ ΜΑΛΑΞΗΣ.
"Ν. ΖΩΙΔΗ ΚΑΙ ΑΙΝΟΥ 2, 69132 ΚΟΜΟΤΗΝΗ","2531554411, 6937012917",Κομοτηνή,"Αλλο, ΥΠΗΡΕΣΙΕΣ",www.itenter.gr,ΥΠΗΡΕΣΙΕΣ ΠΛΗΡΟΦΟΡΙΚΗΣ ΕΚΠΤΩΣΗ 20% ΣΕ ΟΛΑ ΤΑ ΠΡΟΓΡΑΜΜΑΤΑ.
"ΚΑΛΛΙΚΡΑΤΕΙΑΣ 34 ΝΕΑΠΟΛΗ, 56728 ΘΕΣΣΑΛΟΝΙΚΗ",2310 630056,Νεάπολη,"Κομμωτηρια, ΥΓΕΙΑ & ΟΜΟΡΦΙΑ",https,30% ΣΕ ΟΛΕΣ ΤΙΣ ΥΠΗΡΕΣΙΕΣ ΕΚΤΟΣ ΑΠΟ ΠΕΡΜΑΝΑΝΤ ΚΑΙ ΦΟΡΜΑ.
"ΙΔΟΜΕΝΕΩΣ 37, ΗΡΑΚΛΕΙΟ ΚΡΗΤΗΣ 71202",2810334335,Ηράκλειο,Αλλο,WWW.BESTWAYTRAVEL.GR,"10% ΈΚΠΤΩΣΗ ΣΕ ΕΚΔΡΟΜΕΣ , 15% ΈΚΠΤΩΣΗ ΣΕ ΕΝΟΙΚΙΑΣΕΙΣ ΑΥΤΟΚΙΝΗΤΩΝ ΚΑΤΑ ΤΗΝ ΧΑΜΗΛΗ ΠΕΡΙΟΔΟ ΚΑΙ 10% ΤΗΝ ΥΨΗΛΗ ΠΕΡΊΟΔΟ KAI 30% ΕΚΠΤΩΣΗ  ΣΕ ΝΕΟΥΣ ΕΩΣ 26 ΕΤΩΝ  ΓΙΑ ΤΑΞΙΔΙΑ ΤΟΥ ΕΞΩΤΕΡΙΚΟΥ ΜΕ ΤΙΣ ΜΙΝΩΙΚΕΣ ΓΡΑΜΜΕΣ."
"ΣΠΗΛΙΑΔΟΥ 4, ΑΘΗΝΑ 10445",2108320260,Αθήνα,Σχολες Ξενων Γλωσσων,,ΓΙΑ ΕΝΗΛΙΚΕΣ
"ΚΑΡΑΜΑΝΛΗ 78, ΘΕΣΣΑΛΟΝΙΚΗ",2310455254,Θεσσαλονίκη,Αλλο,WWW.ISERVICES.GR,ΚΑΤΑΣΚΕΥΗ ΙΣΤΟΣΕΛΙΔΩΝ - E-SHOP / 20% ΣΕ ΟΛΕΣ ΤΙΣ ΥΠΗΡΕΣΙΕΣ ΔΙΑΔΙΚΤΥΟΥ / DEVELOPING.
ΔΗΜΑΡΧΕΙΟΥ 3Α ΚΑΙ ΠΑΡΝΗΘΟΣ,2102816893,Μεταμόρφωση,Σχολες Ξενων Γλωσσων,WWW.MALLIDOUEDUCATIONCENTER.GR,"10% ΕΚΠΤΩΣΗ ΣΕ ΜΑΘΗΜΑΤΑ ΕΚΜΑΘΗΣΗΣ Η/Υ, 25% ΕΚΠΤΩΣΗ ΣΤΗΝ ΕΚΜΑΘΗΣΗ ΑΓΓΛΙΚΩΝ ΚΑΙ ΙΣΠΑΝΙΚΩΝ ΓΙΑ ΕΝΗΛΙΚΕΣ, 10% ΕΚΠΤΩΣΗ ΣΤΗΝ ΕΚΜΑΘΗΣΗ ΑΓΓΛΙΚΩΝ ΓΙΑ ΜΑΘΗΤΕΣ, 20% ΕΚΠΤΩΣΗ ΣΤΗΝ ΕΚΜΑΘΗΣΗ ΙΣΠΑΝΙΚΩΝ ΓΙΑ ΜΑΘΗΤΕΣ KAI 10% ΕΚΠΤΩΣΗ ΣΕ ΜΑΘΗΤΕΣ 13-15 ΕΤΩΝ ΣΤΟ ΚΕΝΤΡΟ ΜΕΛΕΤΗΣ."
"Βαλαωρίτου 21, Θεσσαλονίκη 546 25",231 050 2280,Θεσσαλονίκη,Ξενοδοχεια,https,"10% έκπτωση, όταν η κράτηση γίνεται μέσω της επίσημης ιστοσελίδας του ξενοδοχείου ή τηλεφωνικώς. Η έκπτωση δε συμψηφίζεται με κάποια άλλη έκπτωση ή προσφορά."
"11η οδός Ταγαράδων Θέρμη/Ταγαράδες, Θεσσαλονίκη",2392072701,Θέρμη/Ταγαράδες,"Ξενοδοχεια, ΤΟΥΡΙΣΜΟΣ",www.heavenhotel.gr,"15% ΣΤΙΣ ΥΠΗΡΕΣΙΕΣ ΔΙΑΜΟΝΗΣ, όταν η κράτηση γίνεται μέσω της επίσημης ιστοσελίδας του ξενοδοχείου ή τηλεφωνικώς. Η έκπτωση δεν συμψηφίζεται με κάποια άλλη έκπτωση ή προσφορά."
Αριστοτέλους 7 54623 Θεσσαλονίκη,2310285127,Θεσσαλονίκη,"Αλλο, Ειδη Καλλυντικων, ΚΑΤΑΣΤΗΜΑΤΑ, Μοδα",www.stop2shop.gr,"10%, ΑΠΟ ΤΗΝ ΕΚΠΤΩΣΗ ΕΞΑΙΡΟΥΝΤΑΙ ΤΑ ΠΡΟΪΌΝΤΑ ΤΩΝ ΕΤΑΙΡΕΙΩΝ"
"Εφέσου 48, 55132 Καλαμαριά, Θεσσαλονίκη",2310 433264,Καλαμαριά,"Οφθαλμιατροι/Οδοντιατροι/Αλλοι Γιατροι, ΥΓΕΙΑ & ΟΜΟΡΦΙΑ",,"50% Οφθαλμολογικές εξετάσεις, χωρίς την ασφάλεια του ΕΟΠΥΥ."
ΘΕΜΙΣΤΟΚΛΕΟΥΣ 25 ΜΕ ΓΙΑΝΝΗ ΧΑΛΚΙΔΗ 26,2314037493,Θεσσαλονίκη,ΗΥ/Φωτογραφικες Μηχανες/Gadgets,WWW.THUNDERSTORES.GR,15 % ΕΚΠΤΩΣΗ ΣΕ ΑΞΕΣΟΥΑΡ ΚΙΝΗΤΩΝ & Η/Υ
"ΠΑΝΟΡΜΟΥ 55, 11524, ΑΘΗΝΑ",2103004040,Αθήνα,"Αλλο, ΥΠΗΡΕΣΙΕΣ",www.easyservice.gr,10% ΣΕ ΟΛΕΣ ΤΙΣ ΕΠΙΣΚΕΥΕΣ
"ΑΓΙΟΥ ΠΕΤΡΟΥ 35, 13674, ΑΓΙΟΣ ΠΕΤΡΟΣ, ΑΧΑΡΝΑΙ",2112156900,Αθήνα,"Αλλο, ΚΑΤΑΣΤΗΜΑΤΑ",WWW.MASTRANTONIS.GR,ΣΕ ΟΛΑ ΤΑ ΑΞΕΣΟΥΑΡ - ΕΞΑΙΡΟΥΝΤΑΙ ΤΑ ΕΙΔΗ ΠΟΥ ΕΙΝΑΙ ΗΔΗ ΣΕ ΠΡΟΣΦΟΡΑ & ΟΙ ΜΠΑΤΑΡΙΕΣ
"ΙΩΑΝΝΟΥ ΦΩΚΑ 58, 11142, ΑΘΗΝΑ",2102220078,Αθήνα,"Αλλο, ΚΑΤΑΣΤΗΜΑΤΑ",WWW.E-KIGKALERIAS.COM,"20% ΣΕ ΟΛΑ ΤΑ ΕΙΔΗ ΕΝΤΟΣ ΚΑΤΑΣΤΗΜΑΤΟΣ (ΣΙΔΗΡΙΚΑ,ΕΡΓΑΛΕΙΑ,ΧΡΩΜΑΤΑ ΚΑΙ ΠΟΛΛΑ ΑΛΛΑ) ΟΠΩΣ ΕΠΙΣΗΣ ΚΑΙ ΣΕ ΕΙΔΗ ΚΑΤΟΠΙΝ ΠΑΡΑΓΓΕΛΙΑΣ (ΚΟΥΡΤΙΝΟΒΕΡΓΕΣ,ΠΟΜΟΛΑ,ΠΟΜΟΛΑΚΙΑ,ΕΙΔΗ ΤΖΑΚΙΟΥ,ΓΡΑΜΜΑΤΟΚΙΒΩΤΙΑ Κ.Τ.Λ.)"
"ΓΕΩΡΓΊΟΥ ΣΤΑΎΡΟΥ 6, 54623, ΘΕΣΣΑΛΟΝΊΚΗ",2311242382,Θεσσαλονίκη,"Μουσεια/Γκαλερι/Αξιοθεατα, ΠΟΛΙΤΙΣΜΟΣ & ΨΥΧΑΓΩΓΙΑ",WWW.DOT2DOT.GR,20% ΣΕ ΌΛΕΣ ΤΙΣ ΥΠΗΡΕΣΊΕΣ
"ΛΕΩΦΟΡΟΣ ΚΗΦΙΣΙΑΣ 99, 15124, ΜΑΡΟΥΣΙ",2106177751,Αθήνα,"Τηλεφωνια/Internet, ΥΠΗΡΕΣΙΕΣ",WWW.COSMOTE.GR,"10% ΈΚΠΤΩΣΗ ΣΤΟ ΠΆΓΙΟ, 4% ΣΤΑ ΚΙΝΗΤΆ ΚΑΙ ΤΑ TABLETS, 5% ΣΤΑ ΠΑΚΈΤΑ ΚΑΡΤΟΚΙΝΗΤΉΣ, ΣΤΑ LAPTOPS TOSHIBA ΚΑΙ SONY VAIO ΚΑΙ ΣΤΑ ΠΑΚΈΤΑ PREPAID INTERNET ON THE GO FULL PACK"
,,,"Ενοικίαση/Πώληση Κατοικιών, ΥΠΗΡΕΣΙΕΣ",www.uniplaces.com,"Είσαι φοιτητής στο εξωτερικό και ψάχνεις για σπίτι;
Μπες στο www.uniplaces.com, βρες μεγάλη ποικιλία από φοιτητικές κατοικίες σε πάνω από 40 Ευρωπαϊκές πόλεις και κέρδισε"
ΚΑΡΑΟΛΗ ΚΑΙ ΔΗΜΗΤΡΙΟΥ 80 18534 ΠΕΙΡΑΙΑΣ,2104142395,Πειραιάς,"ΜΟΡΦΩΣΗ & ΕΚΠΑΙΔΕΥΣΗ, Σεμιναρια Επαγγελματικης Καταρτισης & Επιμορφωσης",ems.unipi.gr/home-tourism,20% ΣΤΑ CERTIFICATES ΚΟΣΤΟΥΣ 900 ΕΥΡΩ ΚΑΙ ΣΤΑ ΣΕΜΙΝΑΡΙΑ ΚΟΣΤΟΥΣ 150 ΚΑΙ 120 ΕΥΡΩ.
ΑΒΕΡΩΦ 34Α 14232 ΝΕΑ ΙΩΝΙΑ,2102586970,Νέα Ιωνία,"ΜΟΡΦΩΣΗ & ΕΚΠΑΙΔΕΥΣΗ, Σεμιναρια Επαγγελματικης Καταρτισης & Επιμορφωσης",www.iekep.gr,"20% στις υπηρεσίες κατάρτισης, εκπαίδευσης και προσανατολισμού"
ΤΣΙΡΙΓΩΤΗ 9 34100 ΧΑΛΚΙΔΑ,6931894275,Χαλκίδα,"ΥΓΕΙΑ & ΟΜΟΡΦΙΑ, Υπηρεσιες Υγειας",,10% σε συμβουλευτική/ψυχοθεραπεία δια ζώσης και εξ'αποστάσεως (Skype)
Αισώπου 3 Δράμα,2521021159,Δράμα,"Αθλητικα/Αθλητικος Εξοπλισμος, ΚΑΤΑΣΤΗΜΑΤΑ",www.hikearth.gr,10% στα προϊόντα που δεν είναι σε προσφορά και 5% στα προϊόντα που είναι σε προσφορά
ΚΟΚΚΙΝΗ ΧΑΝΙ 71500 ΗΡΑΚΛΕΙΟ ΚΡΗΤΗ,2810761314,Ηράκλειο,"ΜΟΡΦΩΣΗ & ΕΚΠΑΙΔΕΥΣΗ, Σχολες Ξενων Γλωσσων",www.euroekpaideusi.gr,10%  σε όλα τα ξενόγλωσσα τμήματα
ΚΑΡΤΑΛΗ 150 38333 ΒΟΛΟΣ,2421213737,Βόλος,"ΜΟΡΦΩΣΗ & ΕΚΠΑΙΔΕΥΣΗ, Σεμιναρια Επαγγελματικης Καταρτισης & Επιμορφωσης",www.efodiakarieras.gr,10% σε αυτοχρηματοδοτούμενα σεμινάρια
ΚΟΚΚΙΝΗ ΧΑΝΙ 71500 ΗΡΑΚΛΕΙΟ ΚΡΗΤΗ,2810761314,Ηράκλειο,"ΜΟΡΦΩΣΗ & ΕΚΠΑΙΔΕΥΣΗ, Σεμιναρια Επαγγελματικης Καταρτισης & Επιμορφωσης",www.euroekpaideusi.gr,"10% στα τμήματα ρομποτικής, ηλεκτρονικών υπολογιστών παιδιών & εφήβων"
ΙΠΠΟΚΡΑΤΟΥΣ 49 68200 ΟΡΕΣΤΙΑΔΑ,2552025556,Ορεστιάδα,"Αλλο, ΥΠΗΡΕΣΙΕΣ",,"50% σε όλες τις υπηρεσίες της επιχείρησης (συμβουλευτική υποστήριξη, φάκελοι υποψηφιότητας σε προγράμματα)"
ΚΙΜΩΝΟΣ 7 59132 ΒΕΡΟΙΑ,2331074027,Βέροια,"ΜΟΡΦΩΣΗ & ΕΚΠΑΙΔΕΥΣΗ, Σχολες Ξενων Γλωσσων",,"15% στα δίδακτρα Αγγλικών, Γερμανικών, Γαλλικών και Πληροφορικής"
ΕΔΕΣΣΗΣ 21 59131 ΒΕΡΟΙΑ,2331022335,Βέροια,"ΜΟΡΦΩΣΗ & ΕΚΠΑΙΔΕΥΣΗ, Σεμιναρια Επαγγελματικης Καταρτισης & Επιμορφωσης",www.dictiosi.gr,Δωρεάν προγράμματα εκπαίδευσης και κατάρτισης για την απόκτηση πιστοποίησης ECDL (δεν περιλαμβανονται τα παράβολα εξετάσεων του φορέα πιστοποίησης)
"28ης Οκτωβρίου, Ξάνθη",2541027531,Ξάνθη,"Ξενοδοχεια, ΤΟΥΡΙΣΜΟΣ",www.nestos-hotel.gr,20%
ΛΕΩΦΟΡΟΣ ΚΑΡΑΜΑΝΛΗ 72300 ΣΗΤΕΙΑ ΛΑΣΙΘΙ,2843024892,Σητεία,"Ξενοδοχεια, ΤΟΥΡΙΣΜΟΣ",,10% στο δωμάτιο με πρωινό
ΤΣΑΓΚΑΡΑΔΑ 37012 ΜΑΓΝΗΣΙΑ,2426049101,Πήλιο,"Ξενοδοχεια, ΤΟΥΡΙΣΜΟΣ",www.filyrapilio.gr,10% στο δίκλινο δωμάτιο με πρωινό για όλο το χρόνο
"Αγίου Ιωάννου 13-15 Γαλαξίδι, Φωκίδα",2265041110,Γαλαξίδι,"Ενοικιαζομενα Δωματια/Ξενωνες, ΤΟΥΡΙΣΜΟΣ",www.acroploro.gr,"Για κάθε 2 διανυκτερεύσεις, μια διανυκτέρευση δωρεάν, μία φιάλη οίνου 750 ml, μία φιάλη αναψυκτικού 1,5 lt και άφθονο εμφιαλωμένο νερό."
Λεωφόρος Βουλιαγμένης 245  Δάφνη 17237,210 9711511 / 210 9750936,Δάφνη,"Κινηματογραφοι/Θεατρα, ΠΟΛΙΤΙΣΜΟΣ & ΨΥΧΑΓΩΓΙΑ","www.odeon.gr, www.atlantisclassiccinemas.gr","1 € έκπτωση στο εισιτήριο για 2D και 3D προβολές από Δευτέρα εώς Παρασκευή, εξαιρούνται οι επίσημες αργίες"
Λεωφόρος Κηφισίας 215  Μαρούσι 15124,"14560 (χρέωση ανά λεπτό 0.49€ από σταθερό & 0,98 από κινητό)",Μαρούσι,"Κινηματογραφοι/Θεατρα, ΠΟΛΙΤΙΣΜΟΣ & ΨΥΧΑΓΩΓΙΑ",www.odeon.gr,"1 € έκπτωση στο εισιτήριο για 2D και 3D προβολές από Δευτέρα εώς Παρασκευή, εξαιρούνται οι επίσημες αργίες"
Ακαδημίας 57  Αθήνα 10679,"14560 (χρέωση ανά λεπτό 0.49€ από σταθερό & 0,98 από κινητό)",Αθήνα,"Κινηματογραφοι/Θεατρα, ΠΟΛΙΤΙΣΜΟΣ & ΨΥΧΑΓΩΓΙΑ",www.odeon.gr,"1 € έκπτωση στο εισιτήριο για 2D και 3D προβολές από Δευτέρα εώς Παρασκευή, εξαιρούνται οι επίσημες αργίες"
Πατρ. Ιωακείμ 5  Αθήνα 10673,"14560 (χρέωση ανά λεπτό 0.49€ από σταθερό & 0,98 από κινητό)",Αθήνα,"Κινηματογραφοι/Θεατρα, ΠΟΛΙΤΙΣΜΟΣ & ΨΥΧΑΓΩΓΙΑ",www.odeon.gr,"1 € έκπτωση στο εισιτήριο για 2D και 3D προβολές από Δευτέρα εώς Παρασκευή, εξαιρούνται οι επίσημες αργίες"
,,,"Τηλεφωνια/Internet, ΥΠΗΡΕΣΙΕΣ",www.vodafonecu.gr,"Mε ανανέωση χρόνου ομιλίας από 10€ και άνω οι συνδρομητές λαμβάνουν έξτρα 10€ Bonus για να τα χρησιμοποιήσουν όπως θέλουν για ένα μήνα.
Τα 10€ bonus αποδίδονται σε μία ανανέωση ανά 30 ημέρες.
Για ενεργοποίηση της προσφοράς, οι συνδρομητές θα πρέπει να αποστείλουν τον αριθμό της Ευρωπαϊκής Κάρτας Νέων με δωρεάν γραπτό μήνυμα στο 1280.

Σχετικά με τη προσφορά της Vodafone σας ενημερώνουμε πως οι κωδικοί στέλνονται μαζικά κάθε τέλος βδομάδας

Επομένως η προσφορά ενεργοποιείται μέσα επόμενης βδομάδα από την ημερομηνία αποστολής των κωδικών.

Εάν υπάρχει πρόβλημα κατά την ενεργοποίηση της προσφοράς, παρακαλούμε επικοινωνήστε μαζί μας στα παρακάτω τηλέφωνα"
Βύρωνος & Βενετοκλέων Ρόδος 85100,22410-28400,Ρόδος,"Κινηματογραφοι/Θεατρα, ΠΟΛΙΤΙΣΜΟΣ & ΨΥΧΑΓΩΓΙΑ","www.odeon.gr, www.cinemametropol.gr","1 € έκπτωση στο εισιτήριο για 2D και 3D προβολές από Δευτέρα εώς Παρασκευή, εξαιρούνται οι επίσημες αργίες"
"Δαγκλή, Καραολή & Ελπίδος Ξάνθη 67100","14560 (χρέωση ανά λεπτό 0.49€ από σταθερό & 0,98 από κινητό)",Ξάνθη,"Κινηματογραφοι/Θεατρα, ΠΟΛΙΤΙΣΜΟΣ & ΨΥΧΑΓΩΓΙΑ",www.odeon.gr,"1 € έκπτωση στο εισιτήριο για 2D και 3D προβολές από Δευτέρα εώς Παρασκευή, εξαιρούνται οι επίσημες αργίες"
"Εθν. Αντιστάσεως & Γ. Παπανδρέου, Περιοχή Ν. Μοσυνούπολη  Κομοτηνή 69 100","14560 (χρέωση ανά λεπτό 0.49€ από σταθερό & 0,98 από κινητό)",Κομοτηνή,"Κινηματογραφοι/Θεατρα, ΠΟΛΙΤΙΣΜΟΣ & ΨΥΧΑΓΩΓΙΑ",www.odeon.gr,"1 € έκπτωση στο εισιτήριο για 2D και 3D προβολές από Δευτέρα εώς Παρασκευή, εξαιρούνται οι επίσημες αργίες"
Περιοχή Βοτανικού  Ιωάννινα 45221,"14560 (χρέωση ανά λεπτό 0.49€ από σταθερό & 0,98 από κινητό)",Ιωάννινα,"Κινηματογραφοι/Θεατρα, ΠΟΛΙΤΙΣΜΟΣ & ΨΥΧΑΓΩΓΙΑ",www.odeon.gr,"1 € έκπτωση στο εισιτήριο για 2D και 3D προβολές από Δευτέρα εώς Παρασκευή, εξαιρούνται οι επίσημες αργίες"
ΤΣΙΜΙΣΚΗ 43 - ΘΕΣΣΑΛΟΝΙΚΗ 54623,"14560 (χρέωση ανά λεπτό 0.49€ από σταθερό & 0,98 από κινητό)",Θεσσαλονίκη,"Κινηματογραφοι/Θεατρα, ΠΟΛΙΤΙΣΜΟΣ & ΨΥΧΑΓΩΓΙΑ",www.odeon.gr,"1 € έκπτωση στο εισιτήριο για 2D και 3D προβολές από Δευτέρα εώς Παρασκευή, εξαιρούνται οι επίσημες αργίες"
"Σ. Βενιζέλου, Μίνωος & Πελασγών (εμπορικό κέντρο TALOS PLAZΑ)  Ηράκλειο Κρήτης 71 303","14560 (χρέωση ανά λεπτό 0.49€ από σταθερό & 0,98 από κινητό)",Ηράκλειο,"Κινηματογραφοι/Θεατρα, ΠΟΛΙΤΙΣΜΟΣ & ΨΥΧΑΓΩΓΙΑ",www.odeon.gr,"1 € έκπτωση στο εισιτήριο για 2D και 3D προβολές από Δευτέρα εώς Παρασκευή, εξαιρούνται οι επίσημες αργίες"
"Θεσσαλονίκης 140 Καβαλάρι, Λαγκαδάς, Θεσσαλονίκη",2394052320,Λαγκαδάς,"Αλλο, ΚΑΤΑΣΤΗΜΑΤΑ",www.maskarata.gr,20% σε όλα τα προϊόντα.
"Πλατεία Ελευθερίας, Νέος Σιδηροδρομικός Σταθμός Θεσσαλονίκη, Πλατεία Αριστοτέλους, ΙΚΕΑ","2310933930, 2310952638",Θεσσαλονίκη,"Λεωφορεια/Τρενα/Αεροπλανα/Πλοια, ΤΑΞΙΔΙΑ & ΜΕΤΑΦΟΡΕΣ",www.oasth.gr,"20% στις Κάρτες απεριορίστων διαδρομών του ΟΑΣΘ.

Συγκεκριμένα"
"Αγίου Φανουρίου 12 Νέα Αλικαρνασσός,71601, Ηράκλειο, Κρήτη",2810242451,Ηράκλειο,"ΥΠΗΡΕΣΙΕΣ, Υπηρεσιες Ψηφιακης Εκτυπωσης",www.metrographics.gr,10% στις ψηφιακές εκτυπώσεις
"Λ. Συγγρού 107 - 109 Αθήνα, Αττική",2130178000,Αθήνα,Μουσεια/Γκαλερι/Αξιοθεατα,www.sgt.gr,20% σε όλες τις παραγωγές της Στέγης Γραμμάτων & Τεχνών εκτός από τις εικαστικές εκθέσεις
ΖΕΠΠΟΥ 14 & ΞΕΝΟΦΩΝΤΟΣ 31 ΓΛΥΦΑΔΑ 16675,"14560 (χρέωση ανά λεπτό 0.49€ από σταθερό & 0,98 από κινητό)",Γλυφάδα,"Κινηματογραφοι/Θεατρα, ΠΟΛΙΤΙΣΜΟΣ & ΨΥΧΑΓΩΓΙΑ",www.odeon.gr,"1 € έκπτωση στο εισιτήριο για 2D και 3D προβολές από Δευτέρα εώς Παρασκευή, εξαιρούνται οι επίσημες αργίες"
